[{"placeName":"\u5317\u4EAC","id":101010100},{"placeName":"\u6D77\u6DC0","id":101010200},{"placeName":"\u671D\u9633","id":101010300},{"placeName":"\u987A\u4E49","id":101010400},{"placeName":"\u6000\u67D4","id":101010500},{"placeName":"\u901A\u5DDE","id":101010600},{"placeName":"\u660C\u5E73","id":101010700},{"placeName":"\u5EF6\u5E86","id":101010800},{"placeName":"\u4E30\u53F0","id":101010900},{"placeName":"\u77F3\u666F\u5C71","id":101011000},{"placeName":"\u5927\u5174","id":101011100},{"placeName":"\u623F\u5C71","id":101011200},{"placeName":"\u5BC6\u4E91","id":101011300},{"placeName":"\u95E8\u5934\u6C9F","id":101011400},{"placeName":"\u5E73\u8C37","id":101011500},{"placeName":"\u516B\u8FBE\u5CAD","id":101011600},{"placeName":"\u4F5B\u7237\u9876","id":101011700},{"placeName":"\u6C64\u6CB3\u53E3","id":101011800},{"placeName":"\u5BC6\u4E91\u4E0A\u7538\u5B50","id":101011900},{"placeName":"\u658B\u5802","id":101012000},{"placeName":"\u971E\u4E91\u5CAD","id":101012100},{"placeName":"\u4E0A\u6D77","id":101020100},{"placeName":"\u95F5\u884C","id":101020200},{"placeName":"\u5B9D\u5C71","id":101020300},{"placeName":"\u5DDD\u6C99","id":101020400},{"placeName":"\u5609\u5B9A","id":101020500},{"placeName":"\u5357\u6C47","id":101020600},{"placeName":"\u91D1\u5C71","id":101020700},{"placeName":"\u9752\u6D66","id":101020800},{"placeName":"\u677E\u6C5F","id":101020900},{"placeName":"\u5949\u8D24","id":101021000},{"placeName":"\u5D07\u660E","id":101021100},{"placeName":"\u9648\u5BB6\u9547","id":101021101},{"placeName":"\u5F15\u6C34\u8239","id":101021102},{"placeName":"\u5F90\u5BB6\u6C47","id":101021200},{"placeName":"\u6D66\u4E1C","id":101021300},{"placeName":"\u5929\u6D25","id":101030100},{"placeName":"\u6B66\u6E05","id":101030200},{"placeName":"\u5B9D\u577B","id":101030300},{"placeName":"\u4E1C\u4E3D","id":101030400},{"placeName":"\u897F\u9752","id":101030500},{"placeName":"\u5317\u8FB0","id":101030600},{"placeName":"\u5B81\u6CB3","id":101030700},{"placeName":"\u6C49\u6CBD","id":101030800},{"placeName":"\u9759\u6D77","id":101030900},{"placeName":"\u6D25\u5357","id":101031000},{"placeName":"\u5858\u6CBD","id":101031100},{"placeName":"\u5927\u6E2F","id":101031200},{"placeName":"\u5E73\u53F0","id":101031300},{"placeName":"\u84DF\u53BF","id":101031400},{"placeName":"\u91CD\u5E86","id":101040100},{"placeName":"\u6C38\u5DDD","id":101040200},{"placeName":"\u5408\u5DDD","id":101040300},{"placeName":"\u5357\u5DDD","id":101040400},{"placeName":"\u6C5F\u6D25","id":101040500},{"placeName":"\u4E07\u76DB","id":101040600},{"placeName":"\u6E1D\u5317","id":101040700},{"placeName":"\u5317\u789A","id":101040800},{"placeName":"\u5DF4\u5357","id":101040900},{"placeName":"\u957F\u5BFF","id":101041000},{"placeName":"\u9ED4\u6C5F","id":101041100},{"placeName":"\u4E07\u5DDE\u5929\u57CE","id":101041200},{"placeName":"\u4E07\u5DDE\u9F99\u5B9D","id":101041300},{"placeName":"\u6DAA\u9675","id":101041400},{"placeName":"\u5F00\u53BF","id":101041500},{"placeName":"\u57CE\u53E3","id":101041600},{"placeName":"\u4E91\u9633","id":101041700},{"placeName":"\u5DEB\u6EAA","id":101041800},{"placeName":"\u5949\u8282","id":101041900},{"placeName":"\u5DEB\u5C71","id":101042000},{"placeName":"\u6F7C\u5357","id":101042100},{"placeName":"\u57AB\u6C5F","id":101042200},{"placeName":"\u6881\u5E73","id":101042300},{"placeName":"\u5FE0\u53BF","id":101042400},{"placeName":"\u77F3\u67F1","id":101042500},{"placeName":"\u5927\u8DB3","id":101042600},{"placeName":"\u8363\u660C","id":101042700},{"placeName":"\u94DC\u6881","id":101042800},{"placeName":"\u74A7\u5C71","id":101042900},{"placeName":"\u4E30\u90FD","id":101043000},{"placeName":"\u6B66\u9686","id":101043100},{"placeName":"\u5F6D\u6C34","id":101043200},{"placeName":"\u7DA6\u6C5F","id":101043300},{"placeName":"\u9149\u9633","id":101043400},{"placeName":"\u91D1\u4F5B\u5C71","id":101043500},{"placeName":"\u79C0\u5C71","id":101043600},{"placeName":"\u6C99\u576A\u575D","id":101043700},{"placeName":"\u54C8\u5C14\u6EE8","id":101050101},{"placeName":"\u53CC\u57CE","id":101050102},{"placeName":"\u547C\u5170","id":101050103},{"placeName":"\u963F\u57CE","id":101050104},{"placeName":"\u5BBE\u53BF","id":101050105},{"placeName":"\u4F9D\u5170","id":101050106},{"placeName":"\u5DF4\u5F66","id":101050107},{"placeName":"\u901A\u6CB3","id":101050108},{"placeName":"\u65B9\u6B63","id":101050109},{"placeName":"\u5EF6\u5BFF","id":101050110},{"placeName":"\u5C1A\u5FD7","id":101050111},{"placeName":"\u4E94\u5E38","id":101050112},{"placeName":"\u6728\u5170","id":101050113},{"placeName":"\u9F50\u9F50\u54C8\u5C14","id":101050201},{"placeName":"\u8BB7\u6CB3","id":101050202},{"placeName":"\u9F99\u6C5F","id":101050203},{"placeName":"\u7518\u5357","id":101050204},{"placeName":"\u5BCC\u88D5","id":101050205},{"placeName":"\u4F9D\u5B89","id":101050206},{"placeName":"\u62DC\u6CC9","id":101050207},{"placeName":"\u514B\u5C71","id":101050208},{"placeName":"\u514B\u4E1C","id":101050209},{"placeName":"\u6CF0\u6765","id":101050210},{"placeName":"\u7261\u4E39\u6C5F","id":101050301},{"placeName":"\u6D77\u6797","id":101050302},{"placeName":"\u7A46\u68F1","id":101050303},{"placeName":"\u6797\u53E3","id":101050304},{"placeName":"\u7EE5\u82AC\u6CB3","id":101050305},{"placeName":"\u5B81\u5B89","id":101050306},{"placeName":"\u4E1C\u5B81","id":101050307},{"placeName":"\u4F73\u6728\u65AF","id":101050401},{"placeName":"\u6C64\u539F","id":101050402},{"placeName":"\u629A\u8FDC","id":101050403},{"placeName":"\u6866\u5DDD","id":101050404},{"placeName":"\u6866\u5357","id":101050405},{"placeName":"\u540C\u6C5F","id":101050406},{"placeName":"\u5BCC\u9526","id":101050407},{"placeName":"\u7EE5\u5316","id":101050501},{"placeName":"\u8087\u4E1C","id":101050502},{"placeName":"\u5B89\u8FBE","id":101050503},{"placeName":"\u6D77\u4F26","id":101050504},{"placeName":"\u660E\u6C34","id":101050505},{"placeName":"\u671B\u594E","id":101050506},{"placeName":"\u5170\u897F","id":101050507},{"placeName":"\u9752\u5188","id":101050508},{"placeName":"\u5E86\u5B89","id":101050509},{"placeName":"\u7EE5\u68F1","id":101050510},{"placeName":"\u9ED1\u6CB3","id":101050601},{"placeName":"\u5AE9\u6C5F","id":101050602},{"placeName":"\u5B59\u5434","id":101050603},{"placeName":"\u900A\u514B","id":101050604},{"placeName":"\u4E94\u5927\u8FDE\u6C60","id":101050605},{"placeName":"\u5317\u5B89","id":101050606},{"placeName":"\u5927\u5174\u5B89\u5CAD","id":101050701},{"placeName":"\u5854\u6CB3","id":101050702},{"placeName":"\u6F20\u6CB3","id":101050703},{"placeName":"\u547C\u739B","id":101050704},{"placeName":"\u547C\u4E2D","id":101050705},{"placeName":"\u65B0\u6797","id":101050706},{"placeName":"\u963F\u6728\u5C14","id":101050707},{"placeName":"\u52A0\u683C\u8FBE\u5947","id":101050708},{"placeName":"\u4F0A\u6625","id":101050801},{"placeName":"\u4E4C\u4F0A\u5CAD","id":101050802},{"placeName":"\u4E94\u8425","id":101050803},{"placeName":"\u94C1\u529B","id":101050804},{"placeName":"\u5609\u836B","id":101050805},{"placeName":"\u5927\u5E86","id":101050901},{"placeName":"\u6797\u7538","id":101050902},{"placeName":"\u8087\u5DDE","id":101050903},{"placeName":"\u8087\u6E90","id":101050904},{"placeName":"\u675C\u8499","id":101050905},{"placeName":"\u4E03\u53F0\u6CB3","id":101051002},{"placeName":"\u52C3\u5229","id":101051003},{"placeName":"\u9E21\u897F","id":101051101},{"placeName":"\u864E\u6797","id":101051102},{"placeName":"\u5BC6\u5C71","id":101051103},{"placeName":"\u9E21\u4E1C","id":101051104},{"placeName":"\u9E64\u5C97","id":101051201},{"placeName":"\u7EE5\u6EE8","id":101051202},{"placeName":"\u841D\u5317","id":101051203},{"placeName":"\u53CC\u9E2D\u5C71","id":101051301},{"placeName":"\u96C6\u8D24","id":101051302},{"placeName":"\u5B9D\u6E05","id":101051303},{"placeName":"\u9976\u6CB3","id":101051304},{"placeName":"\u957F\u6625","id":101060101},{"placeName":"\u519C\u5B89","id":101060102},{"placeName":"\u5FB7\u60E0","id":101060103},{"placeName":"\u4E5D\u53F0","id":101060104},{"placeName":"\u6986\u6811","id":101060105},{"placeName":"\u53CC\u9633","id":101060106},{"placeName":"\u5409\u6797","id":101060201},{"placeName":"\u8212\u5170","id":101060202},{"placeName":"\u6C38\u5409","id":101060203},{"placeName":"\u86DF\u6CB3","id":101060204},{"placeName":"\u78D0\u77F3","id":101060205},{"placeName":"\u6866\u7538","id":101060206},{"placeName":"\u70DF\u7B52\u5C71","id":101060207},{"placeName":"\u5EF6\u5409","id":101060301},{"placeName":"\u6566\u5316","id":101060302},{"placeName":"\u5B89\u56FE","id":101060303},{"placeName":"\u6C6A\u6E05","id":101060304},{"placeName":"\u548C\u9F99","id":101060305},{"placeName":"\u5929\u6C60","id":101060306},{"placeName":"\u9F99\u4E95","id":101060307},{"placeName":"\u73F2\u6625","id":101060308},{"placeName":"\u56FE\u4EEC","id":101060309},{"placeName":"\u677E\u6C5F","id":101060310},{"placeName":"\u7F57\u5B50\u6C9F","id":101060311},{"placeName":"\u5EF6\u8FB9","id":101060312},{"placeName":"\u56DB\u5E73","id":101060401},{"placeName":"\u53CC\u8FBD","id":101060402},{"placeName":"\u68A8\u6811","id":101060403},{"placeName":"\u516C\u4E3B\u5CAD","id":101060404},{"placeName":"\u4F0A\u901A","id":101060405},{"placeName":"\u5B64\u5BB6\u5B50","id":101060406},{"placeName":"\u901A\u5316","id":101060501},{"placeName":"\u6885\u6CB3\u53E3","id":101060502},{"placeName":"\u67F3\u6CB3","id":101060503},{"placeName":"\u8F89\u5357","id":101060504},{"placeName":"\u96C6\u5B89","id":101060505},{"placeName":"\u901A\u5316\u53BF","id":101060506},{"placeName":"\u767D\u57CE","id":101060601},{"placeName":"\u6D2E\u5357","id":101060602},{"placeName":"\u5927\u5B89","id":101060603},{"placeName":"\u9547\u8D49","id":101060604},{"placeName":"\u901A\u6986","id":101060605},{"placeName":"\u8FBD\u6E90","id":101060701},{"placeName":"\u4E1C\u4E30","id":101060702},{"placeName":"\u677E\u539F","id":101060801},{"placeName":"\u4E7E\u5B89","id":101060802},{"placeName":"\u524D\u90ED","id":101060803},{"placeName":"\u957F\u5CAD","id":101060804},{"placeName":"\u6276\u4F59","id":101060805},{"placeName":"\u767D\u5C71","id":101060901},{"placeName":"\u9756\u5B87","id":101060902},{"placeName":"\u4E34\u6C5F","id":101060903},{"placeName":"\u4E1C\u5C97","id":101060904},{"placeName":"\u957F\u767D","id":101060905},{"placeName":"\u6C88\u9633","id":101070101},{"placeName":"\u82CF\u5BB6\u5C6F","id":101070102},{"placeName":"\u8FBD\u4E2D","id":101070103},{"placeName":"\u5EB7\u5E73","id":101070104},{"placeName":"\u6CD5\u5E93","id":101070105},{"placeName":"\u65B0\u6C11","id":101070106},{"placeName":"\u4E8E\u6D2A","id":101070107},{"placeName":"\u65B0\u57CE\u5B50","id":101070108},{"placeName":"\u5927\u8FDE","id":101070201},{"placeName":"\u74E6\u623F\u5E97","id":101070202},{"placeName":"\u91D1\u5DDE","id":101070203},{"placeName":"\u666E\u5170\u5E97","id":101070204},{"placeName":"\u65C5\u987A","id":101070205},{"placeName":"\u957F\u6D77","id":101070206},{"placeName":"\u5E84\u6CB3","id":101070207},{"placeName":"\u76AE\u53E3","id":101070208},{"placeName":"\u6D77\u6D0B\u5C9B","id":101070209},{"placeName":"\u978D\u5C71","id":101070301},{"placeName":"\u53F0\u5B89","id":101070302},{"placeName":"\u5CAB\u5CA9","id":101070303},{"placeName":"\u6D77\u57CE","id":101070304},{"placeName":"\u629A\u987A","id":101070401},{"placeName":"\u6E05\u539F","id":101070403},{"placeName":"\u7AE0\u515A","id":101070404},{"placeName":"\u672C\u6EAA","id":101070501},{"placeName":"\u672C\u6EAA\u53BF","id":101070502},{"placeName":"\u8349\u6CB3\u53E3","id":101070503},{"placeName":"\u6853\u4EC1","id":101070504},{"placeName":"\u4E39\u4E1C","id":101070601},{"placeName":"\u51E4\u57CE","id":101070602},{"placeName":"\u5BBD\u7538","id":101070603},{"placeName":"\u4E1C\u6E2F","id":101070604},{"placeName":"\u4E1C\u6C9F","id":101070605},{"placeName":"\u9526\u5DDE","id":101070701},{"placeName":"\u51CC\u6D77","id":101070702},{"placeName":"\u5317\u5B81","id":101070703},{"placeName":"\u4E49\u53BF","id":101070704},{"placeName":"\u9ED1\u5C71","id":101070705},{"placeName":"\u5317\u9547","id":101070706},{"placeName":"\u8425\u53E3","id":101070801},{"placeName":"\u5927\u77F3\u6865","id":101070802},{"placeName":"\u76D6\u5DDE","id":101070803},{"placeName":"\u961C\u65B0","id":101070901},{"placeName":"\u5F70\u6B66","id":101070902},{"placeName":"\u8FBD\u9633","id":101071001},{"placeName":"\u8FBD\u9633\u53BF","id":101071002},{"placeName":"\u706F\u5854","id":101071003},{"placeName":"\u94C1\u5CAD","id":101071101},{"placeName":"\u5F00\u539F","id":101071102},{"placeName":"\u660C\u56FE","id":101071103},{"placeName":"\u897F\u4E30","id":101071104},{"placeName":"\u671D\u9633","id":101071201},{"placeName":"\u5EFA\u5E73","id":101071202},{"placeName":"\u51CC\u6E90","id":101071203},{"placeName":"\u5580\u5DE6","id":101071204},{"placeName":"\u5317\u7968","id":101071205},{"placeName":"\u7F8A\u5C71","id":101071206},{"placeName":"\u5EFA\u5E73\u53BF","id":101071207},{"placeName":"\u76D8\u9526","id":101071301},{"placeName":"\u5927\u6D3C","id":101071302},{"placeName":"\u76D8\u5C71","id":101071303},{"placeName":"\u846B\u82A6\u5C9B","id":101071401},{"placeName":"\u5EFA\u660C","id":101071402},{"placeName":"\u7EE5\u4E2D","id":101071403},{"placeName":"\u5174\u57CE","id":101071404},{"placeName":"\u547C\u548C\u6D69\u7279","id":101080101},{"placeName":"\u571F\u9ED8\u7279\u5DE6\u65D7","id":101080102},{"placeName":"\u6258\u514B\u6258","id":101080103},{"placeName":"\u548C\u6797\u683C\u5C14","id":101080104},{"placeName":"\u6E05\u6C34\u6CB3","id":101080105},{"placeName":"\u547C\u548C\u6D69\u7279\u5E02\u90CA\u533A","id":101080106},{"placeName":"\u6B66\u5DDD","id":101080107},{"placeName":"\u5305\u5934","id":101080201},{"placeName":"\u767D\u4E91\u9102\u535A","id":101080202},{"placeName":"\u6EE1\u90FD\u62C9","id":101080203},{"placeName":"\u571F\u9ED8\u7279\u53F3\u65D7","id":101080204},{"placeName":"\u56FA\u9633","id":101080205},{"placeName":"\u8FBE\u5C14\u7F55\u8302\u660E\u5B89\u8054\u5408\u65D7","id":101080206},{"placeName":"\u77F3\u62D0","id":101080207},{"placeName":"\u4E4C\u6D77","id":101080301},{"placeName":"\u96C6\u5B81","id":101080401},{"placeName":"\u5353\u8D44","id":101080402},{"placeName":"\u5316\u5FB7","id":101080403},{"placeName":"\u5546\u90FD","id":101080404},{"placeName":"\u5E0C\u62C9\u7A46\u4EC1","id":101080405},{"placeName":"\u5174\u548C","id":101080406},{"placeName":"\u51C9\u57CE","id":101080407},{"placeName":"\u5BDF\u54C8\u5C14\u53F3\u7FFC\u524D\u65D7","id":101080408},{"placeName":"\u5BDF\u54C8\u5C14\u53F3\u7FFC\u4E2D\u65D7","id":101080409},{"placeName":"\u5BDF\u54C8\u5C14\u53F3\u7FFC\u540E\u65D7","id":101080410},{"placeName":"\u56DB\u5B50\u738B\u65D7","id":101080411},{"placeName":"\u4E30\u9547","id":101080412},{"placeName":"\u901A\u8FBD","id":101080501},{"placeName":"\u820D\u4F2F\u5410","id":101080502},{"placeName":"\u79D1\u5C14\u6C81\u5DE6\u7FFC\u4E2D\u65D7","id":101080503},{"placeName":"\u79D1\u5C14\u6C81\u5DE6\u7FFC\u540E\u65D7","id":101080504},{"placeName":"\u9752\u9F99\u5C71","id":101080505},{"placeName":"\u5F00\u9C81","id":101080506},{"placeName":"\u5E93\u4F26\u65D7","id":101080507},{"placeName":"\u5948\u66FC\u65D7","id":101080508},{"placeName":"\u624E\u9C81\u7279\u65D7","id":101080509},{"placeName":"\u9AD8\u529B\u677F","id":101080510},{"placeName":"\u5DF4\u96C5\u5C14\u5410\u80E1\u7855","id":101080511},{"placeName":"\u901A\u8FBD\u94B1\u5BB6\u5E97","id":101080512},{"placeName":"\u8D64\u5CF0","id":101080601},{"placeName":"\u8D64\u5CF0\u90CA\u533A\u7AD9","id":101080602},{"placeName":"\u963F\u9C81\u79D1\u5C14\u6C81\u65D7","id":101080603},{"placeName":"\u6D69\u5C14\u5410","id":101080604},{"placeName":"\u5DF4\u6797\u5DE6\u65D7","id":101080605},{"placeName":"\u5DF4\u6797\u53F3\u65D7","id":101080606},{"placeName":"\u6797\u897F","id":101080607},{"placeName":"\u514B\u4EC0\u514B\u817E\u65D7","id":101080608},{"placeName":"\u7FC1\u725B\u7279\u65D7","id":101080609},{"placeName":"\u5C97\u5B50","id":101080610},{"placeName":"\u5580\u5587\u6C81\u65D7","id":101080611},{"placeName":"\u516B\u91CC\u7F55","id":101080612},{"placeName":"\u5B81\u57CE","id":101080613},{"placeName":"\u6556\u6C49\u65D7","id":101080614},{"placeName":"\u5B9D\u8FC7\u56FE","id":101080615},{"placeName":"\u9102\u5C14\u591A\u65AF","id":101080701},{"placeName":"\u8FBE\u62C9\u7279\u65D7","id":101080703},{"placeName":"\u51C6\u683C\u5C14\u65D7","id":101080704},{"placeName":"\u9102\u6258\u514B\u524D\u65D7","id":101080705},{"placeName":"\u6CB3\u5357","id":101080706},{"placeName":"\u4F0A\u514B\u4E4C\u7D20","id":101080707},{"placeName":"\u9102\u6258\u514B\u65D7","id":101080708},{"placeName":"\u676D\u9526\u65D7","id":101080709},{"placeName":"\u4E4C\u5BA1\u65D7","id":101080710},{"placeName":"\u4F0A\u91D1\u970D\u6D1B\u65D7","id":101080711},{"placeName":"\u4E4C\u5BA1\u53EC","id":101080712},{"placeName":"\u4E1C\u80DC","id":101080713},{"placeName":"\u4E34\u6CB3","id":101080801},{"placeName":"\u4E94\u539F","id":101080802},{"placeName":"\u78F4\u53E3","id":101080803},{"placeName":"\u4E4C\u62C9\u7279\u524D\u65D7","id":101080804},{"placeName":"\u5927\u4F58\u592A","id":101080805},{"placeName":"\u4E4C\u62C9\u7279\u4E2D\u65D7","id":101080806},{"placeName":"\u4E4C\u62C9\u7279\u540E\u65D7","id":101080807},{"placeName":"\u6D77\u529B\u7D20","id":101080808},{"placeName":"\u90A3\u4EC1\u5B9D\u529B\u683C","id":101080809},{"placeName":"\u676D\u9526\u540E\u65D7","id":101080810},{"placeName":"\u5DF4\u76DF\u519C\u8BD5\u7AD9","id":101080811},{"placeName":"\u9521\u6797\u6D69\u7279","id":101080901},{"placeName":"\u671D\u514B\u4E4C\u62C9","id":101080902},{"placeName":"\u4E8C\u8FDE\u6D69\u7279","id":101080903},{"placeName":"\u963F\u5DF4\u560E\u65D7","id":101080904},{"placeName":"\u4F0A\u548C\u90ED\u52D2","id":101080905},{"placeName":"\u82CF\u5C3C\u7279\u5DE6\u65D7","id":101080906},{"placeName":"\u82CF\u5C3C\u7279\u53F3\u65D7","id":101080907},{"placeName":"\u6731\u65E5\u548C","id":101080908},{"placeName":"\u4E1C\u4E4C\u73E0\u7A46\u6C81\u65D7","id":101080909},{"placeName":"\u897F\u4E4C\u73E0\u7A46\u6C81\u65D7","id":101080910},{"placeName":"\u592A\u4EC6\u5BFA\u65D7","id":101080911},{"placeName":"\u9576\u9EC4\u65D7","id":101080912},{"placeName":"\u6B63\u9576\u767D\u65D7","id":101080913},{"placeName":"\u6B63\u5170\u65D7","id":101080914},{"placeName":"\u591A\u4F26","id":101080915},{"placeName":"\u535A\u514B\u56FE","id":101080916},{"placeName":"\u4E4C\u62C9\u76D6","id":101080917},{"placeName":"\u767D\u65E5\u4E4C\u62C9","id":101080918},{"placeName":"\u90A3\u65E5\u56FE","id":101080919},{"placeName":"\u547C\u4F26\u8D1D\u5C14","id":101081000},{"placeName":"\u6D77\u62C9\u5C14","id":101081001},{"placeName":"\u5C0F\u4E8C\u6C9F","id":101081002},{"placeName":"\u963F\u8363\u65D7","id":101081003},{"placeName":"\u83AB\u529B\u8FBE\u74E6\u65D7","id":101081004},{"placeName":"\u9102\u4F26\u6625\u65D7","id":101081005},{"placeName":"\u9102\u6E29\u514B\u65D7","id":101081006},{"placeName":"\u9648\u5DF4\u5C14\u864E\u65D7","id":101081007},{"placeName":"\u65B0\u5DF4\u5C14\u864E\u5DE6\u65D7","id":101081008},{"placeName":"\u65B0\u5DF4\u5C14\u864E\u53F3\u65D7","id":101081009},{"placeName":"\u6EE1\u6D32\u91CC","id":101081010},{"placeName":"\u7259\u514B\u77F3","id":101081011},{"placeName":"\u624E\u5170\u5C6F","id":101081012},{"placeName":"\u989D\u5C14\u53E4\u7EB3","id":101081014},{"placeName":"\u6839\u6CB3","id":101081015},{"placeName":"\u56FE\u91CC\u6CB3","id":101081016},{"placeName":"\u4E4C\u5170\u6D69\u7279","id":101081101},{"placeName":"\u963F\u5C14\u5C71","id":101081102},{"placeName":"\u79D1\u5C14\u6C81\u53F3\u7FFC\u4E2D\u65D7","id":101081103},{"placeName":"\u80E1\u5C14\u52D2","id":101081104},{"placeName":"\u624E\u8D49\u7279\u65D7","id":101081105},{"placeName":"\u7D22\u4F26","id":101081106},{"placeName":"\u7A81\u6CC9","id":101081107},{"placeName":"\u970D\u6797\u90ED\u52D2","id":101081108},{"placeName":"\u963F\u62C9\u5584\u5DE6\u65D7","id":101081201},{"placeName":"\u963F\u62C9\u5584\u53F3\u65D7","id":101081202},{"placeName":"\u989D\u6D4E\u7EB3\u65D7","id":101081203},{"placeName":"\u62D0\u5B50\u6E56","id":101081204},{"placeName":"\u5409\u5170\u592A","id":101081205},{"placeName":"\u9521\u6797\u9AD8\u52D2","id":101081206},{"placeName":"\u5934\u9053\u6E56","id":101081207},{"placeName":"\u4E2D\u6CC9\u5B50","id":101081208},{"placeName":"\u5DF4\u5F66\u8BFA\u5C14\u8D21","id":101081209},{"placeName":"\u96C5\u5E03\u8D56","id":101081210},{"placeName":"\u4E4C\u65AF\u592A","id":101081211},{"placeName":"\u5B6A\u4E95\u6EE9","id":101081212},{"placeName":"\u77F3\u5BB6\u5E84","id":101090101},{"placeName":"\u4E95\u9649","id":101090102},{"placeName":"\u6B63\u5B9A","id":101090103},{"placeName":"\u683E\u57CE","id":101090104},{"placeName":"\u884C\u5510","id":101090105},{"placeName":"\u7075\u5BFF","id":101090106},{"placeName":"\u9AD8\u9091","id":101090107},{"placeName":"\u6DF1\u6CFD","id":101090108},{"placeName":"\u8D5E\u7687","id":101090109},{"placeName":"\u65E0\u6781","id":101090110},{"placeName":"\u5E73\u5C71","id":101090111},{"placeName":"\u5143\u6C0F","id":101090112},{"placeName":"\u8D75\u53BF","id":101090113},{"placeName":"\u8F9B\u96C6","id":101090114},{"placeName":"\u85C1\u57CE","id":101090115},{"placeName":"\u664B\u6D32","id":101090116},{"placeName":"\u65B0\u4E50","id":101090117},{"placeName":"\u4FDD\u5B9A","id":101090201},{"placeName":"\u6EE1\u57CE","id":101090202},{"placeName":"\u961C\u5E73","id":101090203},{"placeName":"\u5F90\u6C34","id":101090204},{"placeName":"\u5510\u53BF","id":101090205},{"placeName":"\u9AD8\u9633","id":101090206},{"placeName":"\u5BB9\u57CE","id":101090207},{"placeName":"\u7D2B\u8346\u5173","id":101090208},{"placeName":"\u6D9E\u6E90","id":101090209},{"placeName":"\u671B\u90FD","id":101090210},{"placeName":"\u5B89\u65B0","id":101090211},{"placeName":"\u6613\u53BF","id":101090212},{"placeName":"\u6D9E\u6C34","id":101090213},{"placeName":"\u66F2\u9633","id":101090214},{"placeName":"\u8821\u53BF","id":101090215},{"placeName":"\u987A\u5E73","id":101090216},{"placeName":"\u96C4\u53BF","id":101090217},{"placeName":"\u6DBF\u5DDE","id":101090218},{"placeName":"\u5B9A\u5DDE","id":101090219},{"placeName":"\u5B89\u56FD","id":101090220},{"placeName":"\u9AD8\u7891\u5E97","id":101090221},{"placeName":"\u5F20\u5BB6\u53E3","id":101090301},{"placeName":"\u5BA3\u5316","id":101090302},{"placeName":"\u5F20\u5317","id":101090303},{"placeName":"\u5EB7\u4FDD","id":101090304},{"placeName":"\u6CBD\u6E90","id":101090305},{"placeName":"\u5C1A\u4E49","id":101090306},{"placeName":"\u851A\u53BF","id":101090307},{"placeName":"\u9633\u539F","id":101090308},{"placeName":"\u6000\u5B89","id":101090309},{"placeName":"\u4E07\u5168","id":101090310},{"placeName":"\u6000\u6765","id":101090311},{"placeName":"\u6DBF\u9E7F","id":101090312},{"placeName":"\u8D64\u57CE","id":101090313},{"placeName":"\u5D07\u793C","id":101090314},{"placeName":"\u627F\u5FB7","id":101090402},{"placeName":"\u627F\u5FB7\u53BF","id":101090403},{"placeName":"\u5174\u9686","id":101090404},{"placeName":"\u5E73\u6CC9","id":101090405},{"placeName":"\u6EE6\u5E73","id":101090406},{"placeName":"\u9686\u5316","id":101090407},{"placeName":"\u4E30\u5B81","id":101090408},{"placeName":"\u5BBD\u57CE","id":101090409},{"placeName":"\u56F4\u573A","id":101090410},{"placeName":"\u585E\u7F55\u574E","id":101090411},{"placeName":"\u5510\u5C71","id":101090501},{"placeName":"\u4E30\u5357","id":101090502},{"placeName":"\u4E30\u6DA6","id":101090503},{"placeName":"\u6EE6\u53BF","id":101090504},{"placeName":"\u6EE6\u5357","id":101090505},{"placeName":"\u4E50\u4EAD","id":101090506},{"placeName":"\u8FC1\u897F","id":101090507},{"placeName":"\u7389\u7530","id":101090508},{"placeName":"\u5510\u6D77","id":101090509},{"placeName":"\u9075\u5316","id":101090510},{"placeName":"\u8FC1\u5B89","id":101090511},{"placeName":"\u5ECA\u574A","id":101090601},{"placeName":"\u56FA\u5B89","id":101090602},{"placeName":"\u6C38\u6E05","id":101090603},{"placeName":"\u9999\u6CB3","id":101090604},{"placeName":"\u5927\u57CE","id":101090605},{"placeName":"\u6587\u5B89","id":101090606},{"placeName":"\u5927\u5382","id":101090607},{"placeName":"\u9738\u5DDE","id":101090608},{"placeName":"\u4E09\u6CB3","id":101090609},{"placeName":"\u6CA7\u5DDE","id":101090701},{"placeName":"\u9752\u53BF","id":101090702},{"placeName":"\u4E1C\u5149","id":101090703},{"placeName":"\u6D77\u5174","id":101090704},{"placeName":"\u76D0\u5C71","id":101090705},{"placeName":"\u8083\u5B81","id":101090706},{"placeName":"\u5357\u76AE","id":101090707},{"placeName":"\u5434\u6865","id":101090708},{"placeName":"\u732E\u53BF","id":101090709},{"placeName":"\u5B5F\u6751","id":101090710},{"placeName":"\u6CCA\u5934","id":101090711},{"placeName":"\u4EFB\u4E18","id":101090712},{"placeName":"\u9EC4\u9A85","id":101090713},{"placeName":"\u6CB3\u95F4","id":101090714},{"placeName":"\u66F9\u5983\u7538","id":101090715},{"placeName":"\u8861\u6C34","id":101090801},{"placeName":"\u67A3\u5F3A","id":101090802},{"placeName":"\u6B66\u9091","id":101090803},{"placeName":"\u6B66\u5F3A","id":101090804},{"placeName":"\u9976\u9633","id":101090805},{"placeName":"\u5B89\u5E73","id":101090806},{"placeName":"\u6545\u57CE","id":101090807},{"placeName":"\u666F\u53BF","id":101090808},{"placeName":"\u961C\u57CE","id":101090809},{"placeName":"\u5180\u5DDE","id":101090810},{"placeName":"\u6DF1\u5DDE","id":101090811},{"placeName":"\u90A2\u53F0","id":101090901},{"placeName":"\u4E34\u57CE","id":101090902},{"placeName":"\u90A2\u53F0\u53BF\u6D46\u6C34","id":101090903},{"placeName":"\u5185\u90B1","id":101090904},{"placeName":"\u67CF\u4E61","id":101090905},{"placeName":"\u9686\u5C27","id":101090906},{"placeName":"\u5357\u548C","id":101090907},{"placeName":"\u5B81\u664B","id":101090908},{"placeName":"\u5DE8\u9E7F","id":101090909},{"placeName":"\u65B0\u6CB3","id":101090910},{"placeName":"\u5E7F\u5B97","id":101090911},{"placeName":"\u5E73\u4E61","id":101090912},{"placeName":"\u5A01\u53BF","id":101090913},{"placeName":"\u6E05\u6CB3","id":101090914},{"placeName":"\u4E34\u897F","id":101090915},{"placeName":"\u5357\u5BAB","id":101090916},{"placeName":"\u6C99\u6CB3","id":101090917},{"placeName":"\u4EFB\u53BF","id":101090918},{"placeName":"\u90AF\u90F8","id":101091001},{"placeName":"\u5CF0\u5CF0","id":101091002},{"placeName":"\u4E34\u6F33","id":101091003},{"placeName":"\u6210\u5B89","id":101091004},{"placeName":"\u5927\u540D","id":101091005},{"placeName":"\u6D89\u53BF","id":101091006},{"placeName":"\u78C1\u53BF","id":101091007},{"placeName":"\u80A5\u4E61","id":101091008},{"placeName":"\u6C38\u5E74","id":101091009},{"placeName":"\u90B1\u53BF","id":101091010},{"placeName":"\u9E21\u6CFD","id":101091011},{"placeName":"\u5E7F\u5E73","id":101091012},{"placeName":"\u9986\u9676","id":101091013},{"placeName":"\u9B4F\u53BF","id":101091014},{"placeName":"\u66F2\u5468","id":101091015},{"placeName":"\u6B66\u5B89","id":101091016},{"placeName":"\u79E6\u7687\u5C9B","id":101091101},{"placeName":"\u9752\u9F99","id":101091102},{"placeName":"\u660C\u9ECE","id":101091103},{"placeName":"\u629A\u5B81","id":101091104},{"placeName":"\u5362\u9F99","id":101091105},{"placeName":"\u5317\u6234\u6CB3","id":101091106},{"placeName":"\u592A\u539F","id":101100101},{"placeName":"\u6E05\u5F90","id":101100102},{"placeName":"\u9633\u66F2","id":101100103},{"placeName":"\u5A04\u70E6","id":101100104},{"placeName":"\u592A\u539F\u53E4\u4EA4\u533A","id":101100105},{"placeName":"\u592A\u539F\u5317\u90CA","id":101100106},{"placeName":"\u592A\u539F\u5357\u90CA","id":101100107},{"placeName":"\u5927\u540C","id":101100201},{"placeName":"\u9633\u9AD8","id":101100202},{"placeName":"\u5927\u540C\u53BF","id":101100203},{"placeName":"\u5929\u9547","id":101100204},{"placeName":"\u5E7F\u7075","id":101100205},{"placeName":"\u7075\u90B1","id":101100206},{"placeName":"\u6D51\u6E90","id":101100207},{"placeName":"\u5DE6\u4E91","id":101100208},{"placeName":"\u9633\u6CC9","id":101100301},{"placeName":"\u76C2\u53BF","id":101100302},{"placeName":"\u5E73\u5B9A","id":101100303},{"placeName":"\u664B\u4E2D","id":101100401},{"placeName":"\u6986\u6B21","id":101100402},{"placeName":"\u6986\u793E","id":101100403},{"placeName":"\u5DE6\u6743","id":101100404},{"placeName":"\u548C\u987A","id":101100405},{"placeName":"\u6614\u9633","id":101100406},{"placeName":"\u5BFF\u9633","id":101100407},{"placeName":"\u592A\u8C37","id":101100408},{"placeName":"\u7941\u53BF","id":101100409},{"placeName":"\u5E73\u9065","id":101100410},{"placeName":"\u7075\u77F3","id":101100411},{"placeName":"\u4ECB\u4F11","id":101100412},{"placeName":"\u957F\u6CBB","id":101100501},{"placeName":"\u9ECE\u57CE","id":101100502},{"placeName":"\u5C6F\u7559","id":101100503},{"placeName":"\u6F5E\u57CE","id":101100504},{"placeName":"\u8944\u57A3","id":101100505},{"placeName":"\u5E73\u987A","id":101100506},{"placeName":"\u6B66\u4E61","id":101100507},{"placeName":"\u6C81\u53BF","id":101100508},{"placeName":"\u957F\u5B50","id":101100509},{"placeName":"\u6C81\u6E90","id":101100510},{"placeName":"\u58F6\u5173","id":101100511},{"placeName":"\u664B\u57CE","id":101100601},{"placeName":"\u6C81\u6C34","id":101100602},{"placeName":"\u9633\u57CE","id":101100603},{"placeName":"\u9675\u5DDD","id":101100604},{"placeName":"\u9AD8\u5E73","id":101100605},{"placeName":"\u4E34\u6C7E","id":101100701},{"placeName":"\u66F2\u6C83","id":101100702},{"placeName":"\u6C38\u548C","id":101100703},{"placeName":"\u96B0\u53BF","id":101100704},{"placeName":"\u5927\u5B81","id":101100705},{"placeName":"\u5409\u53BF","id":101100706},{"placeName":"\u8944\u6C7E","id":101100707},{"placeName":"\u84B2\u53BF","id":101100708},{"placeName":"\u6C7E\u897F","id":101100709},{"placeName":"\u6D2A\u6D1E","id":101100710},{"placeName":"\u970D\u5DDE","id":101100711},{"placeName":"\u4E61\u5B81","id":101100712},{"placeName":"\u7FFC\u57CE","id":101100713},{"placeName":"\u4FAF\u9A6C","id":101100714},{"placeName":"\u6D6E\u5C71","id":101100715},{"placeName":"\u5B89\u6CFD","id":101100716},{"placeName":"\u53E4\u53BF","id":101100717},{"placeName":"\u8FD0\u57CE","id":101100801},{"placeName":"\u4E34\u7317","id":101100802},{"placeName":"\u7A37\u5C71","id":101100803},{"placeName":"\u4E07\u8363","id":101100804},{"placeName":"\u6CB3\u6D25","id":101100805},{"placeName":"\u65B0\u7EDB","id":101100806},{"placeName":"\u7EDB\u53BF","id":101100807},{"placeName":"\u95FB\u559C","id":101100808},{"placeName":"\u57A3\u66F2","id":101100809},{"placeName":"\u6C38\u6D4E","id":101100810},{"placeName":"\u82AE\u57CE","id":101100811},{"placeName":"\u590F\u53BF","id":101100812},{"placeName":"\u5E73\u9646","id":101100813},{"placeName":"\u6714\u5DDE","id":101100901},{"placeName":"\u5E73\u9C81","id":101100902},{"placeName":"\u5C71\u9634","id":101100903},{"placeName":"\u53F3\u7389","id":101100904},{"placeName":"\u5E94\u53BF","id":101100905},{"placeName":"\u6000\u4EC1","id":101100906},{"placeName":"\u5FFB\u5DDE","id":101101001},{"placeName":"\u5B9A\u8944","id":101101002},{"placeName":"\u4E94\u53F0\u53BF\u8C46\u6751","id":101101003},{"placeName":"\u6CB3\u66F2","id":101101004},{"placeName":"\u504F\u5173","id":101101005},{"placeName":"\u795E\u6C60","id":101101006},{"placeName":"\u5B81\u6B66","id":101101007},{"placeName":"\u4EE3\u53BF","id":101101008},{"placeName":"\u7E41\u5CD9","id":101101009},{"placeName":"\u4E94\u53F0\u5C71","id":101101010},{"placeName":"\u4FDD\u5FB7","id":101101011},{"placeName":"\u9759\u4E50","id":101101012},{"placeName":"\u5CA2\u5C9A","id":101101013},{"placeName":"\u4E94\u5BE8","id":101101014},{"placeName":"\u539F\u5E73","id":101101015},{"placeName":"\u5415\u6881","id":101101100},{"placeName":"\u79BB\u77F3","id":101101101},{"placeName":"\u4E34\u53BF","id":101101102},{"placeName":"\u5174\u53BF","id":101101103},{"placeName":"\u5C9A\u53BF","id":101101104},{"placeName":"\u67F3\u6797","id":101101105},{"placeName":"\u77F3\u697C","id":101101106},{"placeName":"\u65B9\u5C71","id":101101107},{"placeName":"\u4EA4\u53E3","id":101101108},{"placeName":"\u4E2D\u9633","id":101101109},{"placeName":"\u5B5D\u4E49","id":101101110},{"placeName":"\u6C7E\u9633","id":101101111},{"placeName":"\u6587\u6C34","id":101101112},{"placeName":"\u4EA4\u57CE","id":101101113},{"placeName":"\u897F\u5B89","id":101110101},{"placeName":"\u957F\u5B89","id":101110102},{"placeName":"\u4E34\u6F7C","id":101110103},{"placeName":"\u84DD\u7530","id":101110104},{"placeName":"\u5468\u81F3","id":101110105},{"placeName":"\u6237\u53BF","id":101110106},{"placeName":"\u9AD8\u9675","id":101110107},{"placeName":"\u6768\u51CC","id":101110108},{"placeName":"\u54B8\u9633","id":101110200},{"placeName":"\u4E09\u539F","id":101110201},{"placeName":"\u793C\u6CC9","id":101110202},{"placeName":"\u6C38\u5BFF","id":101110203},{"placeName":"\u6DF3\u5316","id":101110204},{"placeName":"\u6CFE\u9633","id":101110205},{"placeName":"\u6B66\u529F","id":101110206},{"placeName":"\u4E7E\u53BF","id":101110207},{"placeName":"\u5F6C\u53BF","id":101110208},{"placeName":"\u957F\u6B66","id":101110209},{"placeName":"\u65EC\u9091","id":101110210},{"placeName":"\u5174\u5E73","id":101110211},{"placeName":"\u5EF6\u5B89","id":101110300},{"placeName":"\u5EF6\u957F","id":101110301},{"placeName":"\u5EF6\u5DDD","id":101110302},{"placeName":"\u5B50\u957F","id":101110303},{"placeName":"\u5B9C\u5DDD","id":101110304},{"placeName":"\u5BCC\u53BF","id":101110305},{"placeName":"\u5FD7\u4E39","id":101110306},{"placeName":"\u5B89\u585E","id":101110307},{"placeName":"\u7518\u6CC9","id":101110308},{"placeName":"\u6D1B\u5DDD","id":101110309},{"placeName":"\u9EC4\u9675","id":101110310},{"placeName":"\u9EC4\u9F99","id":101110311},{"placeName":"\u5434\u8D77","id":101110312},{"placeName":"\u6986\u6797","id":101110401},{"placeName":"\u5E9C\u8C37","id":101110402},{"placeName":"\u795E\u6728","id":101110403},{"placeName":"\u4F73\u53BF","id":101110404},{"placeName":"\u5B9A\u8FB9","id":101110405},{"placeName":"\u9756\u8FB9","id":101110406},{"placeName":"\u6A2A\u5C71","id":101110407},{"placeName":"\u7C73\u8102","id":101110408},{"placeName":"\u5B50\u6D32","id":101110409},{"placeName":"\u7EE5\u5FB7","id":101110410},{"placeName":"\u5434\u5821","id":101110411},{"placeName":"\u6E05\u6DA7","id":101110412},{"placeName":"\u6E2D\u5357","id":101110501},{"placeName":"\u534E\u53BF","id":101110502},{"placeName":"\u6F7C\u5173","id":101110503},{"placeName":"\u5927\u8354","id":101110504},{"placeName":"\u767D\u6C34","id":101110505},{"placeName":"\u5BCC\u5E73","id":101110506},{"placeName":"\u84B2\u57CE","id":101110507},{"placeName":"\u6F84\u57CE","id":101110508},{"placeName":"\u5408\u9633","id":101110509},{"placeName":"\u97E9\u57CE","id":101110510},{"placeName":"\u534E\u9634","id":101110511},{"placeName":"\u534E\u5C71","id":101110512},{"placeName":"\u5546\u6D1B","id":101110601},{"placeName":"\u6D1B\u5357","id":101110602},{"placeName":"\u67DE\u6C34","id":101110603},{"placeName":"\u9547\u5B89","id":101110605},{"placeName":"\u4E39\u51E4","id":101110606},{"placeName":"\u5546\u5357","id":101110607},{"placeName":"\u5C71\u9633","id":101110608},{"placeName":"\u5B89\u5EB7","id":101110701},{"placeName":"\u7D2B\u9633","id":101110702},{"placeName":"\u77F3\u6CC9","id":101110703},{"placeName":"\u6C49\u9634","id":101110704},{"placeName":"\u65EC\u9633","id":101110705},{"placeName":"\u5C9A\u768B","id":101110706},{"placeName":"\u5E73\u5229","id":101110707},{"placeName":"\u767D\u6CB3","id":101110708},{"placeName":"\u9547\u576A","id":101110709},{"placeName":"\u5B81\u9655","id":101110710},{"placeName":"\u6C49\u4E2D","id":101110801},{"placeName":"\u7565\u9633","id":101110802},{"placeName":"\u52C9\u53BF","id":101110803},{"placeName":"\u7559\u575D","id":101110804},{"placeName":"\u6D0B\u53BF","id":101110805},{"placeName":"\u57CE\u56FA","id":101110806},{"placeName":"\u897F\u4E61","id":101110807},{"placeName":"\u4F5B\u576A","id":101110808},{"placeName":"\u5B81\u5F3A","id":101110809},{"placeName":"\u5357\u90D1","id":101110810},{"placeName":"\u9547\u5DF4","id":101110811},{"placeName":"\u5B9D\u9E21","id":101110901},{"placeName":"\u5B9D\u9E21\u53BF","id":101110902},{"placeName":"\u5343\u9633","id":101110903},{"placeName":"\u9E9F\u6E38","id":101110904},{"placeName":"\u5C90\u5C71","id":101110905},{"placeName":"\u51E4\u7FD4","id":101110906},{"placeName":"\u6276\u98CE","id":101110907},{"placeName":"\u7709\u53BF","id":101110908},{"placeName":"\u592A\u767D","id":101110909},{"placeName":"\u51E4\u53BF","id":101110910},{"placeName":"\u9647\u53BF","id":101110911},{"placeName":"\u94DC\u5DDD","id":101111001},{"placeName":"\u8000\u53BF","id":101111002},{"placeName":"\u5B9C\u541B","id":101111003},{"placeName":"\u6D4E\u5357","id":101120101},{"placeName":"\u957F\u6E05","id":101120102},{"placeName":"\u5546\u6CB3","id":101120103},{"placeName":"\u7AE0\u4E18","id":101120104},{"placeName":"\u5E73\u9634","id":101120105},{"placeName":"\u6D4E\u9633","id":101120106},{"placeName":"\u9752\u5C9B","id":101120201},{"placeName":"\u5D02\u5C71","id":101120202},{"placeName":"\u6F6E\u8FDE\u5C9B","id":101120203},{"placeName":"\u5373\u58A8","id":101120204},{"placeName":"\u80F6\u5DDE","id":101120205},{"placeName":"\u80F6\u5357","id":101120206},{"placeName":"\u83B1\u897F","id":101120207},{"placeName":"\u5E73\u5EA6","id":101120208},{"placeName":"\u6DC4\u535A","id":101120301},{"placeName":"\u6DC4\u5DDD","id":101120302},{"placeName":"\u535A\u5C71","id":101120303},{"placeName":"\u9AD8\u9752","id":101120304},{"placeName":"\u5468\u6751","id":101120305},{"placeName":"\u6C82\u6E90","id":101120306},{"placeName":"\u6853\u53F0","id":101120307},{"placeName":"\u4E34\u6DC4","id":101120308},{"placeName":"\u5FB7\u5DDE","id":101120401},{"placeName":"\u6B66\u57CE","id":101120402},{"placeName":"\u4E34\u9091","id":101120403},{"placeName":"\u9675\u53BF","id":101120404},{"placeName":"\u9F50\u6CB3","id":101120405},{"placeName":"\u4E50\u9675","id":101120406},{"placeName":"\u5E86\u4E91","id":101120407},{"placeName":"\u5E73\u539F","id":101120408},{"placeName":"\u5B81\u6D25","id":101120409},{"placeName":"\u590F\u6D25","id":101120410},{"placeName":"\u79B9\u57CE","id":101120411},{"placeName":"\u70DF\u53F0","id":101120501},{"placeName":"\u83B1\u5DDE","id":101120502},{"placeName":"\u957F\u5C9B","id":101120503},{"placeName":"\u84EC\u83B1","id":101120504},{"placeName":"\u9F99\u53E3","id":101120505},{"placeName":"\u62DB\u8FDC","id":101120506},{"placeName":"\u6816\u971E","id":101120507},{"placeName":"\u798F\u5C71","id":101120508},{"placeName":"\u725F\u5E73","id":101120509},{"placeName":"\u83B1\u9633","id":101120510},{"placeName":"\u6D77\u9633","id":101120511},{"placeName":"\u5343\u91CC\u5CA9","id":101120512},{"placeName":"\u6F4D\u574A","id":101120601},{"placeName":"\u9752\u5DDE","id":101120602},{"placeName":"\u5BFF\u5149","id":101120603},{"placeName":"\u4E34\u6710","id":101120604},{"placeName":"\u660C\u4E50","id":101120605},{"placeName":"\u660C\u9091","id":101120606},{"placeName":"\u5B89\u4E18","id":101120607},{"placeName":"\u9AD8\u5BC6","id":101120608},{"placeName":"\u8BF8\u57CE","id":101120609},{"placeName":"\u6D4E\u5B81","id":101120701},{"placeName":"\u5609\u7965","id":101120702},{"placeName":"\u5FAE\u5C71","id":101120703},{"placeName":"\u9C7C\u53F0","id":101120704},{"placeName":"\u5156\u5DDE","id":101120705},{"placeName":"\u91D1\u4E61","id":101120706},{"placeName":"\u6C76\u4E0A","id":101120707},{"placeName":"\u6CD7\u6C34","id":101120708},{"placeName":"\u6881\u5C71","id":101120709},{"placeName":"\u66F2\u961C","id":101120710},{"placeName":"\u90B9\u57CE","id":101120711},{"placeName":"\u6CF0\u5B89","id":101120801},{"placeName":"\u65B0\u6CF0","id":101120802},{"placeName":"\u6CF0\u5C71","id":101120803},{"placeName":"\u80A5\u57CE","id":101120804},{"placeName":"\u4E1C\u5E73","id":101120805},{"placeName":"\u5B81\u9633","id":101120806},{"placeName":"\u4E34\u6C82","id":101120901},{"placeName":"\u8392\u5357","id":101120902},{"placeName":"\u6C82\u5357","id":101120903},{"placeName":"\u82CD\u5C71","id":101120904},{"placeName":"\u4E34\u6CAD","id":101120905},{"placeName":"\u90EF\u57CE","id":101120906},{"placeName":"\u8499\u9634","id":101120907},{"placeName":"\u5E73\u9091","id":101120908},{"placeName":"\u8D39\u53BF","id":101120909},{"placeName":"\u6C82\u6C34","id":101120910},{"placeName":"\u9A6C\u7AD9","id":101120911},{"placeName":"\u83CF\u6CFD","id":101121001},{"placeName":"\u9104\u57CE","id":101121002},{"placeName":"\u90D3\u57CE","id":101121003},{"placeName":"\u4E1C\u660E","id":101121004},{"placeName":"\u5B9A\u9676","id":101121005},{"placeName":"\u5DE8\u91CE","id":101121006},{"placeName":"\u66F9\u53BF","id":101121007},{"placeName":"\u6210\u6B66","id":101121008},{"placeName":"\u5355\u53BF","id":101121009},{"placeName":"\u6EE8\u5DDE","id":101121101},{"placeName":"\u535A\u5174","id":101121102},{"placeName":"\u65E0\u68E3","id":101121103},{"placeName":"\u9633\u4FE1","id":101121104},{"placeName":"\u60E0\u6C11","id":101121105},{"placeName":"\u6CBE\u5316","id":101121106},{"placeName":"\u90B9\u5E73","id":101121107},{"placeName":"\u4E1C\u8425","id":101121201},{"placeName":"\u6CB3\u53E3","id":101121202},{"placeName":"\u57A6\u5229","id":101121203},{"placeName":"\u5229\u6D25","id":101121204},{"placeName":"\u5E7F\u9976","id":101121205},{"placeName":"\u5A01\u6D77","id":101121301},{"placeName":"\u6587\u767B","id":101121302},{"placeName":"\u8363\u6210","id":101121303},{"placeName":"\u4E73\u5C71","id":101121304},{"placeName":"\u6210\u5C71\u5934","id":101121305},{"placeName":"\u77F3\u5C9B","id":101121306},{"placeName":"\u67A3\u5E84","id":101121401},{"placeName":"\u859B\u57CE","id":101121402},{"placeName":"\u5CC4\u57CE","id":101121403},{"placeName":"\u53F0\u513F\u5E84","id":101121404},{"placeName":"\u6ED5\u5DDE","id":101121405},{"placeName":"\u65E5\u7167","id":101121501},{"placeName":"\u4E94\u83B2","id":101121502},{"placeName":"\u8392\u53BF","id":101121503},{"placeName":"\u83B1\u829C","id":101121601},{"placeName":"\u804A\u57CE","id":101121701},{"placeName":"\u51A0\u53BF","id":101121702},{"placeName":"\u9633\u8C37","id":101121703},{"placeName":"\u9AD8\u5510","id":101121704},{"placeName":"\u830C\u5E73","id":101121705},{"placeName":"\u4E1C\u963F","id":101121706},{"placeName":"\u4E34\u6E05","id":101121707},{"placeName":"\u671D\u57CE","id":101121708},{"placeName":"\u8398\u53BF","id":101121709},{"placeName":"\u4E4C\u9C81\u6728\u9F50","id":101130101},{"placeName":"\u8521\u5BB6\u6E56","id":101130102},{"placeName":"\u5C0F\u6E20\u5B50","id":101130103},{"placeName":"\u5DF4\u4ED1\u53F0","id":101130104},{"placeName":"\u8FBE\u5742\u57CE","id":101130105},{"placeName":"\u5341\u4E09\u95F4\u623F\u6C14\u8C61\u7AD9","id":101130106},{"placeName":"\u5929\u5C71\u5927\u897F\u6C9F","id":101130107},{"placeName":"\u4E4C\u9C81\u6728\u9F50\u7267\u8BD5\u7AD9","id":101130108},{"placeName":"\u5929\u6C60","id":101130109},{"placeName":"\u767D\u6768\u6C9F","id":101130110},{"placeName":"\u514B\u62C9\u739B\u4F9D","id":101130201},{"placeName":"\u77F3\u6CB3\u5B50","id":101130301},{"placeName":"\u70AE\u53F0","id":101130302},{"placeName":"\u83AB\u7D22\u6E7E","id":101130303},{"placeName":"\u4E4C\u5170\u4E4C\u82CF","id":101130304},{"placeName":"\u660C\u5409","id":101130401},{"placeName":"\u547C\u56FE\u58C1","id":101130402},{"placeName":"\u7C73\u6CC9","id":101130403},{"placeName":"\u961C\u5EB7","id":101130404},{"placeName":"\u5409\u6728\u8428\u5C14","id":101130405},{"placeName":"\u5947\u53F0","id":101130406},{"placeName":"\u739B\u7EB3\u65AF","id":101130407},{"placeName":"\u6728\u5792","id":101130408},{"placeName":"\u5317\u5854\u5C71","id":101130409},{"placeName":"\u5410\u9C81\u756A","id":101130501},{"placeName":"\u6258\u514B\u900A","id":101130502},{"placeName":"\u5410\u9C81\u756A\u4E1C\u574E","id":101130503},{"placeName":"\u912F\u5584","id":101130504},{"placeName":"\u7EA2\u67F3\u6CB3","id":101130505},{"placeName":"\u5E93\u5C14\u52D2","id":101130601},{"placeName":"\u8F6E\u53F0","id":101130602},{"placeName":"\u5C09\u7281","id":101130603},{"placeName":"\u82E5\u7F8C","id":101130604},{"placeName":"\u4E14\u672B","id":101130605},{"placeName":"\u548C\u9759","id":101130606},{"placeName":"\u7109\u8006","id":101130607},{"placeName":"\u548C\u7855","id":101130608},{"placeName":"\u5E93\u7C73\u4EC0","id":101130609},{"placeName":"\u5DF4\u97F3\u5E03\u9C81\u514B","id":101130610},{"placeName":"\u94C1\u5E72\u91CC\u514B","id":101130611},{"placeName":"\u535A\u6E56","id":101130612},{"placeName":"\u5854\u4E2D","id":101130613},{"placeName":"\u963F\u62C9\u5C14","id":101130701},{"placeName":"\u963F\u514B\u82CF","id":101130801},{"placeName":"\u4E4C\u4EC0","id":101130802},{"placeName":"\u6E29\u5BBF","id":101130803},{"placeName":"\u62DC\u57CE","id":101130804},{"placeName":"\u65B0\u548C","id":101130805},{"placeName":"\u6C99\u96C5","id":101130806},{"placeName":"\u5E93\u8F66","id":101130807},{"placeName":"\u67EF\u576A","id":101130808},{"placeName":"\u963F\u74E6\u63D0","id":101130809},{"placeName":"\u5580\u4EC0","id":101130901},{"placeName":"\u82F1\u5409\u6C99","id":101130902},{"placeName":"\u5854\u4EC0\u5E93\u5C14\u5E72","id":101130903},{"placeName":"\u9EA6\u76D6\u63D0","id":101130904},{"placeName":"\u838E\u8F66","id":101130905},{"placeName":"\u53F6\u57CE","id":101130906},{"placeName":"\u6CFD\u666E","id":101130907},{"placeName":"\u5DF4\u695A","id":101130908},{"placeName":"\u5CB3\u666E\u6E56","id":101130909},{"placeName":"\u4F3D\u5E08","id":101130910},{"placeName":"\u4F0A\u5B81","id":101131001},{"placeName":"\u5BDF\u5E03\u67E5\u5C14","id":101131002},{"placeName":"\u5C3C\u52D2\u514B","id":101131003},{"placeName":"\u4F0A\u5B81\u53BF","id":101131004},{"placeName":"\u5DE9\u7559","id":101131005},{"placeName":"\u65B0\u6E90","id":101131006},{"placeName":"\u662D\u82CF","id":101131007},{"placeName":"\u7279\u514B\u65AF","id":101131008},{"placeName":"\u970D\u57CE","id":101131009},{"placeName":"\u970D\u5C14\u679C\u65AF","id":101131010},{"placeName":"\u5854\u57CE","id":101131101},{"placeName":"\u88D5\u6C11","id":101131102},{"placeName":"\u989D\u654F","id":101131103},{"placeName":"\u548C\u5E03\u514B\u8D5B\u5C14","id":101131104},{"placeName":"\u6258\u91CC","id":101131105},{"placeName":"\u4E4C\u82CF","id":101131106},{"placeName":"\u6C99\u6E7E","id":101131107},{"placeName":"\u548C\u4E30","id":101131108},{"placeName":"\u54C8\u5BC6","id":101131201},{"placeName":"\u6C81\u57CE","id":101131202},{"placeName":"\u5DF4\u91CC\u5764","id":101131203},{"placeName":"\u4F0A\u543E","id":101131204},{"placeName":"\u6DD6\u6BDB\u6E56","id":101131205},{"placeName":"\u548C\u7530","id":101131301},{"placeName":"\u76AE\u5C71","id":101131302},{"placeName":"\u7B56\u52D2","id":101131303},{"placeName":"\u58A8\u7389","id":101131304},{"placeName":"\u6D1B\u6D66","id":101131305},{"placeName":"\u6C11\u4E30","id":101131306},{"placeName":"\u4E8E\u7530","id":101131307},{"placeName":"\u963F\u52D2\u6CF0","id":101131401},{"placeName":"\u54C8\u5DF4\u6CB3","id":101131402},{"placeName":"\u4E00\u516B\u4E94\u56E2","id":101131403},{"placeName":"\u9ED1\u5C71\u5934","id":101131404},{"placeName":"\u5409\u6728\u4E43","id":101131405},{"placeName":"\u5E03\u5C14\u6D25","id":101131406},{"placeName":"\u798F\u6D77","id":101131407},{"placeName":"\u5BCC\u8574","id":101131408},{"placeName":"\u9752\u6CB3","id":101131409},{"placeName":"\u5B89\u5FB7\u6CB3","id":101131410},{"placeName":"\u963F\u56FE\u4EC0","id":101131501},{"placeName":"\u4E4C\u6070","id":101131502},{"placeName":"\u963F\u514B\u9676","id":101131503},{"placeName":"\u963F\u5408\u5947","id":101131504},{"placeName":"\u5410\u5C14\u5C15\u7279","id":101131505},{"placeName":"\u535A\u4E50","id":101131601},{"placeName":"\u6E29\u6CC9","id":101131602},{"placeName":"\u7CBE\u6CB3","id":101131603},{"placeName":"\u963F\u62C9\u5C71\u53E3","id":101131606},{"placeName":"\u62C9\u8428","id":101140101},{"placeName":"\u5F53\u96C4","id":101140102},{"placeName":"\u5C3C\u6728","id":101140103},{"placeName":"\u58A8\u7AF9\u8D21\u5361","id":101140104},{"placeName":"\u65E5\u5580\u5219","id":101140201},{"placeName":"\u62C9\u5B5C","id":101140202},{"placeName":"\u5357\u6728\u6797","id":101140203},{"placeName":"\u8042\u62C9\u6728","id":101140204},{"placeName":"\u5B9A\u65E5","id":101140205},{"placeName":"\u6C5F\u5B5C","id":101140206},{"placeName":"\u5E15\u91CC","id":101140207},{"placeName":"\u5C71\u5357","id":101140301},{"placeName":"\u8D21\u560E","id":101140302},{"placeName":"\u743C\u7ED3","id":101140303},{"placeName":"\u52A0\u67E5","id":101140304},{"placeName":"\u6D6A\u5361\u5B50","id":101140305},{"placeName":"\u9519\u90A3","id":101140306},{"placeName":"\u9686\u5B50","id":101140307},{"placeName":"\u6CFD\u5F53","id":101140308},{"placeName":"\u6797\u829D","id":101140401},{"placeName":"\u6CE2\u5BC6","id":101140402},{"placeName":"\u7C73\u6797","id":101140403},{"placeName":"\u5BDF\u9685","id":101140404},{"placeName":"\u660C\u90FD","id":101140501},{"placeName":"\u4E01\u9752","id":101140502},{"placeName":"\u7C7B\u4E4C\u9F50","id":101140503},{"placeName":"\u6D1B\u9686","id":101140504},{"placeName":"\u5DE6\u8D21","id":101140505},{"placeName":"\u8292\u5EB7","id":101140506},{"placeName":"\u516B\u5BBF","id":101140507},{"placeName":"\u90A3\u66F2","id":101140601},{"placeName":"\u5609\u9ECE","id":101140603},{"placeName":"\u73ED\u6208","id":101140604},{"placeName":"\u5B89\u591A","id":101140605},{"placeName":"\u7D22\u53BF","id":101140606},{"placeName":"\u6BD4\u5982","id":101140607},{"placeName":"\u963F\u91CC","id":101140701},{"placeName":"\u6539\u5219","id":101140702},{"placeName":"\u7533\u624E","id":101140703},{"placeName":"\u72EE\u6CC9\u6CB3","id":101140704},{"placeName":"\u666E\u5170","id":101140705},{"placeName":"\u897F\u5B81","id":101150101},{"placeName":"\u5927\u901A","id":101150102},{"placeName":"\u6E5F\u6E90","id":101150103},{"placeName":"\u6E5F\u4E2D","id":101150104},{"placeName":"\u94C1\u535C\u52A0","id":101150105},{"placeName":"\u94C1\u535C\u52A0\u5BFA","id":101150106},{"placeName":"\u4E2D\u5FC3\u7AD9","id":101150107},{"placeName":"\u6D77\u4E1C","id":101150201},{"placeName":"\u4E50\u90FD","id":101150202},{"placeName":"\u6C11\u548C","id":101150203},{"placeName":"\u4E92\u52A9","id":101150204},{"placeName":"\u5316\u9686","id":101150205},{"placeName":"\u5FAA\u5316","id":101150206},{"placeName":"\u51B7\u6E56","id":101150207},{"placeName":"\u5E73\u5B89","id":101150208},{"placeName":"\u9EC4\u5357","id":101150301},{"placeName":"\u5C16\u624E","id":101150302},{"placeName":"\u6CFD\u5E93","id":101150303},{"placeName":"\u6CB3\u5357","id":101150304},{"placeName":"\u6D77\u5357","id":101150401},{"placeName":"\u6C5F\u897F\u6C9F","id":101150402},{"placeName":"\u8D35\u5FB7","id":101150404},{"placeName":"\u6CB3\u5361","id":101150405},{"placeName":"\u5174\u6D77","id":101150406},{"placeName":"\u8D35\u5357","id":101150407},{"placeName":"\u540C\u5FB7","id":101150408},{"placeName":"\u5171\u548C","id":101150409},{"placeName":"\u679C\u6D1B","id":101150501},{"placeName":"\u73ED\u739B","id":101150502},{"placeName":"\u7518\u5FB7","id":101150503},{"placeName":"\u8FBE\u65E5","id":101150504},{"placeName":"\u4E45\u6CBB","id":101150505},{"placeName":"\u739B\u591A","id":101150506},{"placeName":"\u6E05\u6C34\u6CB3","id":101150507},{"placeName":"\u739B\u6C81","id":101150508},{"placeName":"\u7389\u6811","id":101150601},{"placeName":"\u6258\u6258\u6CB3","id":101150602},{"placeName":"\u6CBB\u591A","id":101150603},{"placeName":"\u6742\u591A","id":101150604},{"placeName":"\u56CA\u8C26","id":101150605},{"placeName":"\u66F2\u9EBB\u83B1","id":101150606},{"placeName":"\u6D77\u897F","id":101150701},{"placeName":"\u683C\u5C14\u6728","id":101150702},{"placeName":"\u5BDF\u5C14\u6C49","id":101150703},{"placeName":"\u91CE\u725B\u6C9F","id":101150704},{"placeName":"\u4E94\u9053\u6881","id":101150705},{"placeName":"\u5C0F\u7076\u706B","id":101150706},{"placeName":"\u5929\u5CFB","id":101150708},{"placeName":"\u4E4C\u5170","id":101150709},{"placeName":"\u90FD\u5170","id":101150710},{"placeName":"\u8BFA\u6728\u6D2A","id":101150711},{"placeName":"\u832B\u5D16","id":101150712},{"placeName":"\u5927\u67F4\u65E6","id":101150713},{"placeName":"\u8336\u5361","id":101150714},{"placeName":"\u9999\u65E5\u5FB7","id":101150715},{"placeName":"\u5FB7\u4EE4\u54C8","id":101150716},{"placeName":"\u6D77\u5317","id":101150801},{"placeName":"\u95E8\u6E90","id":101150802},{"placeName":"\u7941\u8FDE","id":101150803},{"placeName":"\u6D77\u664F","id":101150804},{"placeName":"\u6258\u52D2","id":101150805},{"placeName":"\u521A\u5BDF","id":101150806},{"placeName":"\u5170\u5DDE","id":101160101},{"placeName":"\u768B\u5170","id":101160102},{"placeName":"\u6C38\u767B","id":101160103},{"placeName":"\u6986\u4E2D","id":101160104},{"placeName":"\u5B9A\u897F","id":101160201},{"placeName":"\u901A\u6E2D","id":101160202},{"placeName":"\u9647\u897F","id":101160203},{"placeName":"\u6E2D\u6E90","id":101160204},{"placeName":"\u4E34\u6D2E","id":101160205},{"placeName":"\u6F33\u53BF","id":101160206},{"placeName":"\u5CB7\u53BF","id":101160207},{"placeName":"\u5B89\u5B9A","id":101160208},{"placeName":"\u5E73\u51C9","id":101160301},{"placeName":"\u6CFE\u5DDD","id":101160302},{"placeName":"\u7075\u53F0","id":101160303},{"placeName":"\u5D07\u4FE1","id":101160304},{"placeName":"\u534E\u4EAD","id":101160305},{"placeName":"\u5E84\u6D6A","id":101160306},{"placeName":"\u9759\u5B81","id":101160307},{"placeName":"\u5D06\u5CD2","id":101160308},{"placeName":"\u5E86\u9633","id":101160401},{"placeName":"\u897F\u5CF0","id":101160402},{"placeName":"\u73AF\u53BF","id":101160403},{"placeName":"\u534E\u6C60","id":101160404},{"placeName":"\u5408\u6C34","id":101160405},{"placeName":"\u6B63\u5B81","id":101160406},{"placeName":"\u5B81\u53BF","id":101160407},{"placeName":"\u9547\u539F","id":101160408},{"placeName":"\u5E86\u57CE","id":101160409},{"placeName":"\u6B66\u5A01","id":101160501},{"placeName":"\u6C11\u52E4","id":101160502},{"placeName":"\u53E4\u6D6A","id":101160503},{"placeName":"\u4E4C\u9798\u5CAD","id":101160504},{"placeName":"\u5929\u795D","id":101160505},{"placeName":"\u91D1\u660C","id":101160601},{"placeName":"\u6C38\u660C","id":101160602},{"placeName":"\u5F20\u6396","id":101160701},{"placeName":"\u8083\u5357","id":101160702},{"placeName":"\u6C11\u4E50","id":101160703},{"placeName":"\u4E34\u6CFD","id":101160704},{"placeName":"\u9AD8\u53F0","id":101160705},{"placeName":"\u5C71\u4E39","id":101160706},{"placeName":"\u9152\u6CC9","id":101160801},{"placeName":"\u9F0E\u65B0","id":101160802},{"placeName":"\u91D1\u5854","id":101160803},{"placeName":"\u9A6C\u9B03\u5C71","id":101160804},{"placeName":"\u74DC\u5DDE","id":101160805},{"placeName":"\u8083\u5317","id":101160806},{"placeName":"\u7389\u95E8\u9547","id":101160807},{"placeName":"\u6566\u714C","id":101160808},{"placeName":"\u5929\u6C34","id":101160901},{"placeName":"\u5317\u9053\u533A","id":101160902},{"placeName":"\u6E05\u6C34","id":101160903},{"placeName":"\u79E6\u5B89","id":101160904},{"placeName":"\u7518\u8C37","id":101160905},{"placeName":"\u6B66\u5C71","id":101160906},{"placeName":"\u5F20\u5BB6\u5DDD","id":101160907},{"placeName":"\u9EA6\u79EF","id":101160908},{"placeName":"\u6B66\u90FD","id":101161001},{"placeName":"\u6210\u53BF","id":101161002},{"placeName":"\u6587\u53BF","id":101161003},{"placeName":"\u5B95\u660C","id":101161004},{"placeName":"\u5EB7\u53BF","id":101161005},{"placeName":"\u897F\u548C","id":101161006},{"placeName":"\u793C\u53BF","id":101161007},{"placeName":"\u5FBD\u53BF","id":101161008},{"placeName":"\u4E24\u5F53","id":101161009},{"placeName":"\u4E34\u590F","id":101161101},{"placeName":"\u5EB7\u4E50","id":101161102},{"placeName":"\u6C38\u9756","id":101161103},{"placeName":"\u5E7F\u6CB3","id":101161104},{"placeName":"\u548C\u653F","id":101161105},{"placeName":"\u4E1C\u4E61","id":101161106},{"placeName":"\u5408\u4F5C","id":101161201},{"placeName":"\u4E34\u6F6D","id":101161202},{"placeName":"\u5353\u5C3C","id":101161203},{"placeName":"\u821F\u66F2","id":101161204},{"placeName":"\u8FED\u90E8","id":101161205},{"placeName":"\u739B\u66F2","id":101161206},{"placeName":"\u788C\u66F2","id":101161207},{"placeName":"\u590F\u6CB3","id":101161208},{"placeName":"\u767D\u94F6","id":101161301},{"placeName":"\u9756\u8FDC","id":101161302},{"placeName":"\u4F1A\u5B81","id":101161303},{"placeName":"\u534E\u5BB6\u5CAD","id":101161304},{"placeName":"\u666F\u6CF0","id":101161305},{"placeName":"\u94F6\u5DDD","id":101170101},{"placeName":"\u6C38\u5B81","id":101170102},{"placeName":"\u7075\u6B66","id":101170103},{"placeName":"\u8D3A\u5170","id":101170104},{"placeName":"\u77F3\u5634\u5C71","id":101170201},{"placeName":"\u60E0\u519C","id":101170202},{"placeName":"\u5E73\u7F57","id":101170203},{"placeName":"\u9676\u4E50","id":101170204},{"placeName":"\u77F3\u70AD\u4E95","id":101170205},{"placeName":"\u5927\u6B66\u53E3","id":101170206},{"placeName":"\u5434\u5FE0","id":101170301},{"placeName":"\u540C\u5FC3","id":101170302},{"placeName":"\u76D0\u6C60","id":101170303},{"placeName":"\u97E6\u5DDE","id":101170304},{"placeName":"\u9EBB\u9EC4\u5C71","id":101170305},{"placeName":"\u9752\u94DC\u5CE1","id":101170306},{"placeName":"\u56FA\u539F","id":101170401},{"placeName":"\u897F\u5409","id":101170402},{"placeName":"\u9686\u5FB7","id":101170403},{"placeName":"\u6CFE\u6E90","id":101170404},{"placeName":"\u516D\u76D8\u5C71","id":101170405},{"placeName":"\u5F6D\u9633","id":101170406},{"placeName":"\u4E2D\u536B","id":101170501},{"placeName":"\u4E2D\u5B81","id":101170502},{"placeName":"\u5174\u4EC1\u5821","id":101170503},{"placeName":"\u6D77\u539F","id":101170504},{"placeName":"\u90D1\u5DDE","id":101180101},{"placeName":"\u5DE9\u4E49","id":101180102},{"placeName":"\u8365\u9633","id":101180103},{"placeName":"\u767B\u5C01","id":101180104},{"placeName":"\u65B0\u5BC6","id":101180105},{"placeName":"\u65B0\u90D1","id":101180106},{"placeName":"\u4E2D\u725F","id":101180107},{"placeName":"\u90D1\u5DDE\u519C\u8BD5\u7AD9","id":101180108},{"placeName":"\u5B89\u9633","id":101180201},{"placeName":"\u6C64\u9634","id":101180202},{"placeName":"\u6ED1\u53BF","id":101180203},{"placeName":"\u5185\u9EC4","id":101180204},{"placeName":"\u6797\u5DDE","id":101180205},{"placeName":"\u65B0\u4E61","id":101180301},{"placeName":"\u83B7\u5609","id":101180302},{"placeName":"\u539F\u9633","id":101180303},{"placeName":"\u8F89\u53BF","id":101180304},{"placeName":"\u536B\u8F89","id":101180305},{"placeName":"\u5EF6\u6D25","id":101180306},{"placeName":"\u5C01\u4E18","id":101180307},{"placeName":"\u957F\u57A3","id":101180308},{"placeName":"\u8BB8\u660C","id":101180401},{"placeName":"\u9122\u9675","id":101180402},{"placeName":"\u8944\u57CE","id":101180403},{"placeName":"\u957F\u845B","id":101180404},{"placeName":"\u79B9\u5DDE","id":101180405},{"placeName":"\u5E73\u9876\u5C71","id":101180501},{"placeName":"\u90CF\u53BF","id":101180502},{"placeName":"\u5B9D\u4E30","id":101180503},{"placeName":"\u6C5D\u5DDE","id":101180504},{"placeName":"\u53F6\u53BF","id":101180505},{"placeName":"\u821E\u94A2","id":101180506},{"placeName":"\u9C81\u5C71","id":101180507},{"placeName":"\u4FE1\u9633","id":101180601},{"placeName":"\u606F\u53BF","id":101180602},{"placeName":"\u7F57\u5C71","id":101180603},{"placeName":"\u5149\u5C71","id":101180604},{"placeName":"\u65B0\u53BF","id":101180605},{"placeName":"\u6DEE\u6EE8","id":101180606},{"placeName":"\u6F62\u5DDD","id":101180607},{"placeName":"\u56FA\u59CB","id":101180608},{"placeName":"\u5546\u57CE","id":101180609},{"placeName":"\u9E21\u516C\u5C71","id":101180610},{"placeName":"\u4FE1\u9633\u5730\u533A\u519C\u8BD5\u7AD9","id":101180611},{"placeName":"\u5357\u9633","id":101180701},{"placeName":"\u5357\u53EC","id":101180702},{"placeName":"\u65B9\u57CE","id":101180703},{"placeName":"\u793E\u65D7","id":101180704},{"placeName":"\u897F\u5CE1","id":101180705},{"placeName":"\u5185\u4E61","id":101180706},{"placeName":"\u9547\u5E73","id":101180707},{"placeName":"\u6DC5\u5DDD","id":101180708},{"placeName":"\u65B0\u91CE","id":101180709},{"placeName":"\u5510\u6CB3","id":101180710},{"placeName":"\u9093\u5DDE","id":101180711},{"placeName":"\u6850\u67CF","id":101180712},{"placeName":"\u5F00\u5C01","id":101180801},{"placeName":"\u675E\u53BF","id":101180802},{"placeName":"\u5C09\u6C0F","id":101180803},{"placeName":"\u901A\u8BB8","id":101180804},{"placeName":"\u5170\u8003","id":101180805},{"placeName":"\u6D1B\u9633","id":101180901},{"placeName":"\u65B0\u5B89","id":101180902},{"placeName":"\u5B5F\u6D25","id":101180903},{"placeName":"\u5B9C\u9633","id":101180904},{"placeName":"\u6D1B\u5B81","id":101180905},{"placeName":"\u4F0A\u5DDD","id":101180906},{"placeName":"\u5D69\u53BF","id":101180907},{"placeName":"\u5043\u5E08","id":101180908},{"placeName":"\u683E\u5DDD","id":101180909},{"placeName":"\u6C5D\u9633","id":101180910},{"placeName":"\u5546\u4E18","id":101181001},{"placeName":"\u7762\u9633\u533A","id":101181002},{"placeName":"\u7762\u53BF","id":101181003},{"placeName":"\u6C11\u6743","id":101181004},{"placeName":"\u865E\u57CE","id":101181005},{"placeName":"\u67D8\u57CE","id":101181006},{"placeName":"\u5B81\u9675","id":101181007},{"placeName":"\u590F\u9091","id":101181008},{"placeName":"\u6C38\u57CE","id":101181009},{"placeName":"\u7126\u4F5C","id":101181101},{"placeName":"\u4FEE\u6B66","id":101181102},{"placeName":"\u6B66\u965F","id":101181103},{"placeName":"\u6C81\u9633","id":101181104},{"placeName":"\u535A\u7231","id":101181106},{"placeName":"\u6E29\u53BF","id":101181107},{"placeName":"\u5B5F\u5DDE","id":101181108},{"placeName":"\u9E64\u58C1","id":101181201},{"placeName":"\u6D5A\u53BF","id":101181202},{"placeName":"\u6DC7\u53BF","id":101181203},{"placeName":"\u6FEE\u9633","id":101181301},{"placeName":"\u53F0\u524D","id":101181302},{"placeName":"\u5357\u4E50","id":101181303},{"placeName":"\u6E05\u4E30","id":101181304},{"placeName":"\u8303\u53BF","id":101181305},{"placeName":"\u5468\u53E3","id":101181401},{"placeName":"\u6276\u6C9F","id":101181402},{"placeName":"\u592A\u5EB7","id":101181403},{"placeName":"\u6DEE\u9633","id":101181404},{"placeName":"\u897F\u534E","id":101181405},{"placeName":"\u5546\u6C34","id":101181406},{"placeName":"\u9879\u57CE","id":101181407},{"placeName":"\u90F8\u57CE","id":101181408},{"placeName":"\u9E7F\u9091","id":101181409},{"placeName":"\u6C88\u4E18","id":101181410},{"placeName":"\u9EC4\u6CDB\u533A","id":101181411},{"placeName":"\u6F2F\u6CB3","id":101181501},{"placeName":"\u4E34\u988D","id":101181502},{"placeName":"\u821E\u9633","id":101181503},{"placeName":"\u9A7B\u9A6C\u5E97","id":101181601},{"placeName":"\u897F\u5E73","id":101181602},{"placeName":"\u9042\u5E73","id":101181603},{"placeName":"\u4E0A\u8521","id":101181604},{"placeName":"\u6C5D\u5357","id":101181605},{"placeName":"\u6CCC\u9633","id":101181606},{"placeName":"\u5E73\u8206","id":101181607},{"placeName":"\u65B0\u8521","id":101181608},{"placeName":"\u786E\u5C71","id":101181609},{"placeName":"\u6B63\u9633","id":101181610},{"placeName":"\u4E09\u95E8\u5CE1","id":101181701},{"placeName":"\u7075\u5B9D","id":101181702},{"placeName":"\u6E11\u6C60","id":101181703},{"placeName":"\u5362\u6C0F","id":101181704},{"placeName":"\u6D4E\u6E90","id":101181801},{"placeName":"\u5357\u4EAC","id":101190101},{"placeName":"\u6EA7\u6C34","id":101190102},{"placeName":"\u9AD8\u6DF3","id":101190103},{"placeName":"\u6C5F\u5B81","id":101190104},{"placeName":"\u516D\u5408","id":101190105},{"placeName":"\u6C5F\u6D66","id":101190106},{"placeName":"\u6D66\u53E3","id":101190107},{"placeName":"\u65E0\u9521","id":101190201},{"placeName":"\u6C5F\u9634","id":101190202},{"placeName":"\u5B9C\u5174","id":101190203},{"placeName":"\u9547\u6C5F","id":101190301},{"placeName":"\u4E39\u9633","id":101190302},{"placeName":"\u626C\u4E2D","id":101190303},{"placeName":"\u53E5\u5BB9","id":101190304},{"placeName":"\u4E39\u5F92","id":101190305},{"placeName":"\u82CF\u5DDE","id":101190401},{"placeName":"\u5E38\u719F","id":101190402},{"placeName":"\u5F20\u5BB6\u6E2F","id":101190403},{"placeName":"\u6606\u5C71","id":101190404},{"placeName":"\u5434\u53BF\u4E1C\u5C71","id":101190405},{"placeName":"\u5434\u53BF","id":101190406},{"placeName":"\u5434\u6C5F","id":101190407},{"placeName":"\u592A\u4ED3","id":101190408},{"placeName":"\u5357\u901A","id":101190501},{"placeName":"\u6D77\u5B89","id":101190502},{"placeName":"\u5982\u768B","id":101190503},{"placeName":"\u5982\u4E1C","id":101190504},{"placeName":"\u5415\u6CD7","id":101190505},{"placeName":"\u5415\u6CD7\u6E14\u573A","id":101190506},{"placeName":"\u542F\u4E1C","id":101190507},{"placeName":"\u6D77\u95E8","id":101190508},{"placeName":"\u901A\u5DDE","id":101190509},{"placeName":"\u626C\u5DDE","id":101190601},{"placeName":"\u5B9D\u5E94","id":101190602},{"placeName":"\u4EEA\u5F81","id":101190603},{"placeName":"\u9AD8\u90AE","id":101190604},{"placeName":"\u6C5F\u90FD","id":101190605},{"placeName":"\u9097\u6C5F","id":101190606},{"placeName":"\u76D0\u57CE","id":101190701},{"placeName":"\u54CD\u6C34","id":101190702},{"placeName":"\u6EE8\u6D77","id":101190703},{"placeName":"\u961C\u5B81","id":101190704},{"placeName":"\u5C04\u9633","id":101190705},{"placeName":"\u5EFA\u6E56","id":101190706},{"placeName":"\u4E1C\u53F0","id":101190707},{"placeName":"\u5927\u4E30","id":101190708},{"placeName":"\u76D0\u90FD","id":101190709},{"placeName":"\u5F90\u5DDE","id":101190801},{"placeName":"\u5F90\u5DDE\u519C\u8BD5\u7AD9","id":101190802},{"placeName":"\u4E30\u53BF","id":101190803},{"placeName":"\u6C9B\u53BF","id":101190804},{"placeName":"\u90B3\u5DDE","id":101190805},{"placeName":"\u7762\u5B81","id":101190806},{"placeName":"\u65B0\u6C82","id":101190807},{"placeName":"\u6DEE\u5B89","id":101190901},{"placeName":"\u91D1\u6E56","id":101190902},{"placeName":"\u76F1\u7719","id":101190903},{"placeName":"\u6D2A\u6CFD","id":101190904},{"placeName":"\u6D9F\u6C34","id":101190905},{"placeName":"\u6DEE\u9634\u53BF","id":101190906},{"placeName":"\u6DEE\u9634","id":101190907},{"placeName":"\u695A\u5DDE","id":101190908},{"placeName":"\u8FDE\u4E91\u6E2F","id":101191001},{"placeName":"\u4E1C\u6D77","id":101191002},{"placeName":"\u8D63\u6986","id":101191003},{"placeName":"\u704C\u4E91","id":101191004},{"placeName":"\u704C\u5357","id":101191005},{"placeName":"\u897F\u8FDE\u5C9B","id":101191006},{"placeName":"\u71D5\u5C3E\u6E2F","id":101191007},{"placeName":"\u5E38\u5DDE","id":101191101},{"placeName":"\u6EA7\u9633","id":101191102},{"placeName":"\u91D1\u575B","id":101191103},{"placeName":"\u6CF0\u5DDE","id":101191201},{"placeName":"\u5174\u5316","id":101191202},{"placeName":"\u6CF0\u5174","id":101191203},{"placeName":"\u59DC\u5830","id":101191204},{"placeName":"\u9756\u6C5F","id":101191205},{"placeName":"\u5BBF\u8FC1","id":101191301},{"placeName":"\u6CAD\u9633","id":101191302},{"placeName":"\u6CD7\u9633","id":101191303},{"placeName":"\u6CD7\u6D2A","id":101191304},{"placeName":"\u6B66\u6C49","id":101200101},{"placeName":"\u8521\u7538","id":101200102},{"placeName":"\u9EC4\u9642","id":101200103},{"placeName":"\u65B0\u6D32","id":101200104},{"placeName":"\u6C5F\u590F","id":101200105},{"placeName":"\u8944\u6A0A","id":101200201},{"placeName":"\u8944\u9633","id":101200202},{"placeName":"\u4FDD\u5EB7","id":101200203},{"placeName":"\u5357\u6F33","id":101200204},{"placeName":"\u5B9C\u57CE","id":101200205},{"placeName":"\u8001\u6CB3\u53E3","id":101200206},{"placeName":"\u8C37\u57CE","id":101200207},{"placeName":"\u67A3\u9633","id":101200208},{"placeName":"\u9102\u5DDE","id":101200301},{"placeName":"\u5B5D\u611F","id":101200401},{"placeName":"\u5B89\u9646","id":101200402},{"placeName":"\u4E91\u68A6","id":101200403},{"placeName":"\u5927\u609F","id":101200404},{"placeName":"\u5E94\u57CE","id":101200405},{"placeName":"\u6C49\u5DDD","id":101200406},{"placeName":"\u9EC4\u5188","id":101200501},{"placeName":"\u7EA2\u5B89","id":101200502},{"placeName":"\u9EBB\u57CE","id":101200503},{"placeName":"\u7F57\u7530","id":101200504},{"placeName":"\u82F1\u5C71","id":101200505},{"placeName":"\u6D60\u6C34","id":101200506},{"placeName":"\u8572\u6625","id":101200507},{"placeName":"\u9EC4\u6885","id":101200508},{"placeName":"\u6B66\u7A74","id":101200509},{"placeName":"\u9EC4\u77F3","id":101200601},{"placeName":"\u5927\u51B6","id":101200602},{"placeName":"\u9633\u65B0","id":101200603},{"placeName":"\u54B8\u5B81","id":101200701},{"placeName":"\u8D64\u58C1","id":101200702},{"placeName":"\u5609\u9C7C","id":101200703},{"placeName":"\u5D07\u9633","id":101200704},{"placeName":"\u901A\u57CE","id":101200705},{"placeName":"\u901A\u5C71","id":101200706},{"placeName":"\u8346\u5DDE","id":101200801},{"placeName":"\u6C5F\u9675","id":101200802},{"placeName":"\u516C\u5B89","id":101200803},{"placeName":"\u77F3\u9996","id":101200804},{"placeName":"\u76D1\u5229","id":101200805},{"placeName":"\u6D2A\u6E56","id":101200806},{"placeName":"\u677E\u6ECB","id":101200807},{"placeName":"\u5B9C\u660C","id":101200901},{"placeName":"\u8FDC\u5B89","id":101200902},{"placeName":"\u79ED\u5F52","id":101200903},{"placeName":"\u5174\u5C71","id":101200904},{"placeName":"\u5B9C\u660C\u53BF","id":101200905},{"placeName":"\u4E94\u5CF0","id":101200906},{"placeName":"\u5F53\u9633","id":101200907},{"placeName":"\u957F\u9633","id":101200908},{"placeName":"\u5B9C\u90FD","id":101200909},{"placeName":"\u679D\u6C5F","id":101200910},{"placeName":"\u4E09\u5CE1","id":101200911},{"placeName":"\u5937\u9675","id":101200912},{"placeName":"\u6069\u65BD","id":101201001},{"placeName":"\u5229\u5DDD","id":101201002},{"placeName":"\u5EFA\u59CB","id":101201003},{"placeName":"\u54B8\u4E30","id":101201004},{"placeName":"\u5BA3\u6069","id":101201005},{"placeName":"\u9E64\u5CF0","id":101201006},{"placeName":"\u6765\u51E4","id":101201007},{"placeName":"\u5DF4\u4E1C","id":101201008},{"placeName":"\u7EFF\u8471\u5761","id":101201009},{"placeName":"\u5341\u5830","id":101201101},{"placeName":"\u7AF9\u6EAA","id":101201102},{"placeName":"\u90E7\u897F","id":101201103},{"placeName":"\u90E7\u53BF","id":101201104},{"placeName":"\u7AF9\u5C71","id":101201105},{"placeName":"\u623F\u53BF","id":101201106},{"placeName":"\u4E39\u6C5F\u53E3","id":101201107},{"placeName":"\u795E\u519C\u67B6","id":101201201},{"placeName":"\u968F\u5DDE","id":101201301},{"placeName":"\u5E7F\u6C34","id":101201302},{"placeName":"\u8346\u95E8","id":101201401},{"placeName":"\u949F\u7965","id":101201402},{"placeName":"\u4EAC\u5C71","id":101201403},{"placeName":"\u5929\u95E8","id":101201501},{"placeName":"\u4ED9\u6843","id":101201601},{"placeName":"\u6F5C\u6C5F","id":101201701},{"placeName":"\u676D\u5DDE","id":101210101},{"placeName":"\u8427\u5C71","id":101210102},{"placeName":"\u6850\u5E90","id":101210103},{"placeName":"\u6DF3\u5B89","id":101210104},{"placeName":"\u5EFA\u5FB7","id":101210105},{"placeName":"\u4F59\u676D","id":101210106},{"placeName":"\u4E34\u5B89","id":101210107},{"placeName":"\u5BCC\u9633","id":101210108},{"placeName":"\u6E56\u5DDE","id":101210201},{"placeName":"\u957F\u5174","id":101210202},{"placeName":"\u5B89\u5409","id":101210203},{"placeName":"\u5FB7\u6E05","id":101210204},{"placeName":"\u5609\u5174","id":101210301},{"placeName":"\u5609\u5584","id":101210302},{"placeName":"\u6D77\u5B81","id":101210303},{"placeName":"\u6850\u4E61","id":101210304},{"placeName":"\u5E73\u6E56","id":101210305},{"placeName":"\u6D77\u76D0","id":101210306},{"placeName":"\u5B81\u6CE2","id":101210401},{"placeName":"\u6148\u6EAA","id":101210403},{"placeName":"\u4F59\u59DA","id":101210404},{"placeName":"\u5949\u5316","id":101210405},{"placeName":"\u8C61\u5C71","id":101210406},{"placeName":"\u77F3\u6D66","id":101210407},{"placeName":"\u5B81\u6D77","id":101210408},{"placeName":"\u911E\u53BF","id":101210409},{"placeName":"\u5317\u4ED1","id":101210410},{"placeName":"\u911E\u5DDE","id":101210411},{"placeName":"\u9547\u6D77","id":101210412},{"placeName":"\u7ECD\u5174","id":101210501},{"placeName":"\u8BF8\u66A8","id":101210502},{"placeName":"\u4E0A\u865E","id":101210503},{"placeName":"\u65B0\u660C","id":101210504},{"placeName":"\u5D4A\u5DDE","id":101210505},{"placeName":"\u53F0\u5DDE","id":101210601},{"placeName":"\u62EC\u82CD\u5C71","id":101210602},{"placeName":"\u7389\u73AF","id":101210603},{"placeName":"\u4E09\u95E8","id":101210604},{"placeName":"\u5929\u53F0","id":101210605},{"placeName":"\u4ED9\u5C45","id":101210606},{"placeName":"\u6E29\u5CAD","id":101210607},{"placeName":"\u5927\u9648","id":101210608},{"placeName":"\u6D2A\u5BB6","id":101210609},{"placeName":"\u6E29\u5DDE","id":101210701},{"placeName":"\u6CF0\u987A","id":101210702},{"placeName":"\u6587\u6210","id":101210703},{"placeName":"\u5E73\u9633","id":101210704},{"placeName":"\u745E\u5B89","id":101210705},{"placeName":"\u6D1E\u5934","id":101210706},{"placeName":"\u4E50\u6E05","id":101210707},{"placeName":"\u6C38\u5609","id":101210708},{"placeName":"\u82CD\u5357","id":101210709},{"placeName":"\u4E3D\u6C34","id":101210801},{"placeName":"\u9042\u660C","id":101210802},{"placeName":"\u9F99\u6CC9","id":101210803},{"placeName":"\u7F19\u4E91","id":101210804},{"placeName":"\u9752\u7530","id":101210805},{"placeName":"\u4E91\u548C","id":101210806},{"placeName":"\u5E86\u5143","id":101210807},{"placeName":"\u91D1\u534E","id":101210901},{"placeName":"\u6D66\u6C5F","id":101210902},{"placeName":"\u5170\u6EAA","id":101210903},{"placeName":"\u4E49\u4E4C","id":101210904},{"placeName":"\u4E1C\u9633","id":101210905},{"placeName":"\u6B66\u4E49","id":101210906},{"placeName":"\u6C38\u5EB7","id":101210907},{"placeName":"\u78D0\u5B89","id":101210908},{"placeName":"\u8862\u5DDE","id":101211001},{"placeName":"\u5E38\u5C71","id":101211002},{"placeName":"\u5F00\u5316","id":101211003},{"placeName":"\u9F99\u6E38","id":101211004},{"placeName":"\u6C5F\u5C71","id":101211005},{"placeName":"\u821F\u5C71","id":101211101},{"placeName":"\u5D4A\u6CD7","id":101211102},{"placeName":"\u5D4A\u5C71","id":101211103},{"placeName":"\u5CB1\u5C71","id":101211104},{"placeName":"\u666E\u9640","id":101211105},{"placeName":"\u5B9A\u6D77","id":101211106},{"placeName":"\u5408\u80A5","id":101220101},{"placeName":"\u957F\u4E30","id":101220102},{"placeName":"\u80A5\u4E1C","id":101220103},{"placeName":"\u80A5\u897F","id":101220104},{"placeName":"\u868C\u57E0","id":101220201},{"placeName":"\u6000\u8FDC","id":101220202},{"placeName":"\u56FA\u9547","id":101220203},{"placeName":"\u4E94\u6CB3","id":101220204},{"placeName":"\u829C\u6E56","id":101220301},{"placeName":"\u7E41\u660C","id":101220302},{"placeName":"\u829C\u6E56\u53BF","id":101220303},{"placeName":"\u5357\u9675","id":101220304},{"placeName":"\u6DEE\u5357","id":101220401},{"placeName":"\u51E4\u53F0","id":101220402},{"placeName":"\u9A6C\u978D\u5C71","id":101220501},{"placeName":"\u5F53\u6D82","id":101220502},{"placeName":"\u5B89\u5E86","id":101220601},{"placeName":"\u679E\u9633","id":101220602},{"placeName":"\u592A\u6E56","id":101220603},{"placeName":"\u6F5C\u5C71","id":101220604},{"placeName":"\u6000\u5B81","id":101220605},{"placeName":"\u5BBF\u677E","id":101220606},{"placeName":"\u671B\u6C5F","id":101220607},{"placeName":"\u5CB3\u897F","id":101220608},{"placeName":"\u6850\u57CE","id":101220609},{"placeName":"\u5BBF\u5DDE","id":101220701},{"placeName":"\u7800\u5C71","id":101220702},{"placeName":"\u7075\u74A7","id":101220703},{"placeName":"\u6CD7\u53BF","id":101220704},{"placeName":"\u8427\u53BF","id":101220705},{"placeName":"\u961C\u9633","id":101220801},{"placeName":"\u961C\u5357","id":101220802},{"placeName":"\u988D\u4E0A","id":101220803},{"placeName":"\u4E34\u6CC9","id":101220804},{"placeName":"\u754C\u9996","id":101220805},{"placeName":"\u592A\u548C","id":101220806},{"placeName":"\u4EB3\u5DDE","id":101220901},{"placeName":"\u6DA1\u9633","id":101220902},{"placeName":"\u5229\u8F9B","id":101220903},{"placeName":"\u8499\u57CE","id":101220904},{"placeName":"\u9EC4\u5C71\u7AD9","id":101221001},{"placeName":"\u9EC4\u5C71\u533A","id":101221002},{"placeName":"\u5C6F\u6EAA","id":101221003},{"placeName":"\u7941\u95E8","id":101221004},{"placeName":"\u9EDF\u53BF","id":101221005},{"placeName":"\u6B59\u53BF","id":101221006},{"placeName":"\u4F11\u5B81","id":101221007},{"placeName":"\u9EC4\u5C71\u5E02","id":101221008},{"placeName":"\u6EC1\u5DDE","id":101221101},{"placeName":"\u51E4\u9633","id":101221102},{"placeName":"\u660E\u5149","id":101221103},{"placeName":"\u5B9A\u8FDC","id":101221104},{"placeName":"\u5168\u6912","id":101221105},{"placeName":"\u6765\u5B89","id":101221106},{"placeName":"\u5929\u957F","id":101221107},{"placeName":"\u6DEE\u5317","id":101221201},{"placeName":"\u6FC9\u6EAA","id":101221202},{"placeName":"\u94DC\u9675","id":101221301},{"placeName":"\u5BA3\u57CE","id":101221401},{"placeName":"\u6CFE\u53BF","id":101221402},{"placeName":"\u65CC\u5FB7","id":101221403},{"placeName":"\u5B81\u56FD","id":101221404},{"placeName":"\u7EE9\u6EAA","id":101221405},{"placeName":"\u5E7F\u5FB7","id":101221406},{"placeName":"\u90CE\u6EAA","id":101221407},{"placeName":"\u516D\u5B89","id":101221501},{"placeName":"\u970D\u90B1","id":101221502},{"placeName":"\u5BFF\u53BF","id":101221503},{"placeName":"\u5357\u6EAA","id":101221504},{"placeName":"\u91D1\u5BE8","id":101221505},{"placeName":"\u970D\u5C71","id":101221506},{"placeName":"\u8212\u57CE","id":101221507},{"placeName":"\u5DE2\u6E56","id":101221601},{"placeName":"\u5E90\u6C5F","id":101221602},{"placeName":"\u65E0\u4E3A","id":101221603},{"placeName":"\u542B\u5C71","id":101221604},{"placeName":"\u548C\u53BF","id":101221605},{"placeName":"\u6C60\u5DDE","id":101221701},{"placeName":"\u4E1C\u81F3","id":101221702},{"placeName":"\u9752\u9633","id":101221703},{"placeName":"\u4E5D\u534E\u5C71","id":101221704},{"placeName":"\u77F3\u53F0","id":101221705},{"placeName":"\u798F\u5DDE","id":101230101},{"placeName":"\u95FD\u6E05","id":101230102},{"placeName":"\u95FD\u4FAF","id":101230103},{"placeName":"\u7F57\u6E90","id":101230104},{"placeName":"\u8FDE\u6C5F","id":101230105},{"placeName":"\u9A6C\u7956","id":101230106},{"placeName":"\u6C38\u6CF0","id":101230107},{"placeName":"\u5E73\u6F6D","id":101230108},{"placeName":"\u798F\u5DDE\u90CA\u533A","id":101230109},{"placeName":"\u957F\u4E50","id":101230110},{"placeName":"\u798F\u6E05","id":101230111},{"placeName":"\u5E73\u6F6D\u6D77\u5CE1\u5927\u6865","id":101230112},{"placeName":"\u53A6\u95E8","id":101230201},{"placeName":"\u540C\u5B89","id":101230202},{"placeName":"\u5B81\u5FB7","id":101230301},{"placeName":"\u53E4\u7530","id":101230302},{"placeName":"\u971E\u6D66","id":101230303},{"placeName":"\u5BFF\u5B81","id":101230304},{"placeName":"\u5468\u5B81","id":101230305},{"placeName":"\u798F\u5B89","id":101230306},{"placeName":"\u67D8\u8363","id":101230307},{"placeName":"\u798F\u9F0E","id":101230308},{"placeName":"\u5C4F\u5357","id":101230309},{"placeName":"\u8386\u7530","id":101230401},{"placeName":"\u4ED9\u6E38","id":101230402},{"placeName":"\u79C0\u5C7F\u6E2F","id":101230403},{"placeName":"\u6CC9\u5DDE","id":101230501},{"placeName":"\u5B89\u6EAA","id":101230502},{"placeName":"\u4E5D\u4ED9\u5C71","id":101230503},{"placeName":"\u6C38\u6625","id":101230504},{"placeName":"\u5FB7\u5316","id":101230505},{"placeName":"\u5357\u5B89","id":101230506},{"placeName":"\u5D07\u6B66","id":101230507},{"placeName":"\u91D1\u5C71","id":101230508},{"placeName":"\u664B\u6C5F","id":101230509},{"placeName":"\u6F33\u5DDE","id":101230601},{"placeName":"\u957F\u6CF0","id":101230602},{"placeName":"\u5357\u9756","id":101230603},{"placeName":"\u5E73\u548C","id":101230604},{"placeName":"\u9F99\u6D77","id":101230605},{"placeName":"\u6F33\u6D66","id":101230606},{"placeName":"\u8BCF\u5B89","id":101230607},{"placeName":"\u4E1C\u5C71","id":101230608},{"placeName":"\u4E91\u9704","id":101230609},{"placeName":"\u534E\u5B89","id":101230610},{"placeName":"\u9F99\u5CA9","id":101230701},{"placeName":"\u957F\u6C40","id":101230702},{"placeName":"\u8FDE\u57CE","id":101230703},{"placeName":"\u6B66\u5E73","id":101230704},{"placeName":"\u4E0A\u676D","id":101230705},{"placeName":"\u6C38\u5B9A","id":101230706},{"placeName":"\u6F33\u5E73","id":101230707},{"placeName":"\u4E09\u660E","id":101230801},{"placeName":"\u5B81\u5316","id":101230802},{"placeName":"\u6E05\u6D41","id":101230803},{"placeName":"\u6CF0\u5B81","id":101230804},{"placeName":"\u5C06\u4E50","id":101230805},{"placeName":"\u5EFA\u5B81","id":101230806},{"placeName":"\u660E\u6EAA","id":101230807},{"placeName":"\u6C99\u53BF","id":101230808},{"placeName":"\u5C24\u6EAA","id":101230809},{"placeName":"\u6C38\u5B89","id":101230810},{"placeName":"\u5927\u7530","id":101230811},{"placeName":"\u5357\u5E73","id":101230901},{"placeName":"\u987A\u660C","id":101230902},{"placeName":"\u5149\u6CFD","id":101230903},{"placeName":"\u90B5\u6B66","id":101230904},{"placeName":"\u6B66\u5937\u5C71","id":101230905},{"placeName":"\u6D66\u57CE","id":101230906},{"placeName":"\u5EFA\u9633","id":101230907},{"placeName":"\u677E\u6EAA","id":101230908},{"placeName":"\u653F\u548C","id":101230909},{"placeName":"\u5EFA\u74EF","id":101230910},{"placeName":"\u5357\u660C","id":101240101},{"placeName":"\u65B0\u5EFA","id":101240102},{"placeName":"\u5357\u660C\u53BF","id":101240103},{"placeName":"\u5B89\u4E49","id":101240104},{"placeName":"\u8FDB\u8D24","id":101240105},{"placeName":"\u83B2\u5858","id":101240106},{"placeName":"\u4E5D\u6C5F","id":101240201},{"placeName":"\u745E\u660C","id":101240202},{"placeName":"\u5E90\u5C71","id":101240203},{"placeName":"\u6B66\u5B81","id":101240204},{"placeName":"\u5FB7\u5B89","id":101240205},{"placeName":"\u6C38\u4FEE","id":101240206},{"placeName":"\u6E56\u53E3","id":101240207},{"placeName":"\u5F6D\u6CFD","id":101240208},{"placeName":"\u661F\u5B50","id":101240209},{"placeName":"\u90FD\u660C","id":101240210},{"placeName":"\u68E0\u836B","id":101240211},{"placeName":"\u4FEE\u6C34","id":101240212},{"placeName":"\u4E0A\u9976","id":101240301},{"placeName":"\u9131\u9633","id":101240302},{"placeName":"\u5A7A\u6E90","id":101240303},{"placeName":"\u5EB7\u5C71","id":101240304},{"placeName":"\u4F59\u5E72","id":101240305},{"placeName":"\u4E07\u5E74","id":101240306},{"placeName":"\u5FB7\u5174","id":101240307},{"placeName":"\u4E0A\u9976\u53BF","id":101240308},{"placeName":"\u5F0B\u9633","id":101240309},{"placeName":"\u6A2A\u5CF0","id":101240310},{"placeName":"\u94C5\u5C71","id":101240311},{"placeName":"\u7389\u5C71","id":101240312},{"placeName":"\u5E7F\u4E30","id":101240313},{"placeName":"\u6CE2\u9633","id":101240314},{"placeName":"\u629A\u5DDE","id":101240401},{"placeName":"\u5E7F\u660C","id":101240402},{"placeName":"\u4E50\u5B89","id":101240403},{"placeName":"\u5D07\u4EC1","id":101240404},{"placeName":"\u91D1\u6EAA","id":101240405},{"placeName":"\u8D44\u6EAA","id":101240406},{"placeName":"\u5B9C\u9EC4","id":101240407},{"placeName":"\u5357\u57CE","id":101240408},{"placeName":"\u5357\u4E30","id":101240409},{"placeName":"\u9ECE\u5DDD","id":101240410},{"placeName":"\u4E1C\u4E61","id":101240411},{"placeName":"\u5B9C\u6625","id":101240501},{"placeName":"\u94DC\u9F13","id":101240502},{"placeName":"\u5B9C\u4E30","id":101240503},{"placeName":"\u4E07\u8F7D","id":101240504},{"placeName":"\u4E0A\u9AD8","id":101240505},{"placeName":"\u9756\u5B89","id":101240506},{"placeName":"\u5949\u65B0","id":101240507},{"placeName":"\u9AD8\u5B89","id":101240508},{"placeName":"\u6A1F\u6811","id":101240509},{"placeName":"\u4E30\u57CE","id":101240510},{"placeName":"\u5409\u5B89","id":101240601},{"placeName":"\u5409\u5B89\u53BF","id":101240602},{"placeName":"\u5409\u6C34","id":101240603},{"placeName":"\u65B0\u5E72","id":101240604},{"placeName":"\u5CE1\u6C5F","id":101240605},{"placeName":"\u6C38\u4E30","id":101240606},{"placeName":"\u6C38\u65B0","id":101240607},{"placeName":"\u4E95\u5188\u5C71","id":101240608},{"placeName":"\u4E07\u5B89","id":101240609},{"placeName":"\u9042\u5DDD","id":101240610},{"placeName":"\u6CF0\u548C","id":101240611},{"placeName":"\u5B89\u798F","id":101240612},{"placeName":"\u5B81\u5188","id":101240613},{"placeName":"\u8D63\u5DDE","id":101240701},{"placeName":"\u5D07\u4E49","id":101240702},{"placeName":"\u4E0A\u72B9","id":101240703},{"placeName":"\u5357\u5EB7","id":101240704},{"placeName":"\u5927\u4F59","id":101240705},{"placeName":"\u4FE1\u4E30","id":101240706},{"placeName":"\u5B81\u90FD","id":101240707},{"placeName":"\u77F3\u57CE","id":101240708},{"placeName":"\u745E\u91D1","id":101240709},{"placeName":"\u4E8E\u90FD","id":101240710},{"placeName":"\u4F1A\u660C","id":101240711},{"placeName":"\u5B89\u8FDC","id":101240712},{"placeName":"\u5168\u5357","id":101240713},{"placeName":"\u9F99\u5357","id":101240714},{"placeName":"\u5B9A\u5357","id":101240715},{"placeName":"\u5BFB\u4E4C","id":101240716},{"placeName":"\u5174\u56FD","id":101240717},{"placeName":"\u666F\u5FB7\u9547","id":101240801},{"placeName":"\u4E50\u5E73","id":101240802},{"placeName":"\u840D\u4E61","id":101240901},{"placeName":"\u83B2\u82B1","id":101240902},{"placeName":"\u65B0\u4F59","id":101241001},{"placeName":"\u5206\u5B9C","id":101241002},{"placeName":"\u9E70\u6F6D","id":101241101},{"placeName":"\u4F59\u6C5F","id":101241102},{"placeName":"\u8D35\u6EAA","id":101241103},{"placeName":"\u957F\u6C99","id":101250101},{"placeName":"\u5B81\u4E61","id":101250102},{"placeName":"\u6D4F\u9633","id":101250103},{"placeName":"\u9A6C\u5761\u5CAD","id":101250104},{"placeName":"\u6E58\u6F6D","id":101250201},{"placeName":"\u97F6\u5C71","id":101250202},{"placeName":"\u6E58\u4E61","id":101250203},{"placeName":"\u682A\u6D32","id":101250301},{"placeName":"\u6538\u53BF","id":101250302},{"placeName":"\u91B4\u9675","id":101250303},{"placeName":"\u682A\u6D32\u53BF","id":101250304},{"placeName":"\u8336\u9675","id":101250305},{"placeName":"\u708E\u9675","id":101250306},{"placeName":"\u8861\u9633","id":101250401},{"placeName":"\u8861\u5C71","id":101250402},{"placeName":"\u8861\u4E1C","id":101250403},{"placeName":"\u7941\u4E1C","id":101250404},{"placeName":"\u8861\u9633\u53BF","id":101250405},{"placeName":"\u5E38\u5B81","id":101250406},{"placeName":"\u8861\u5357","id":101250407},{"placeName":"\u8012\u9633","id":101250408},{"placeName":"\u5357\u5CB3","id":101250409},{"placeName":"\u90F4\u5DDE","id":101250501},{"placeName":"\u6842\u9633","id":101250502},{"placeName":"\u5609\u79BE","id":101250503},{"placeName":"\u5B9C\u7AE0","id":101250504},{"placeName":"\u4E34\u6B66","id":101250505},{"placeName":"\u6865\u53E3","id":101250506},{"placeName":"\u8D44\u5174","id":101250507},{"placeName":"\u6C5D\u57CE","id":101250508},{"placeName":"\u5B89\u4EC1","id":101250509},{"placeName":"\u6C38\u5174","id":101250510},{"placeName":"\u6842\u4E1C","id":101250511},{"placeName":"\u5E38\u5FB7","id":101250601},{"placeName":"\u5B89\u4E61","id":101250602},{"placeName":"\u6843\u6E90","id":101250603},{"placeName":"\u6C49\u5BFF","id":101250604},{"placeName":"\u6FA7\u53BF","id":101250605},{"placeName":"\u4E34\u6FA7","id":101250606},{"placeName":"\u77F3\u95E8","id":101250607},{"placeName":"\u76CA\u9633","id":101250700},{"placeName":"\u8D6B\u5C71\u533A","id":101250701},{"placeName":"\u5357\u53BF","id":101250702},{"placeName":"\u6843\u6C5F","id":101250703},{"placeName":"\u5B89\u5316","id":101250704},{"placeName":"\u6C85\u6C5F","id":101250705},{"placeName":"\u5A04\u5E95","id":101250801},{"placeName":"\u53CC\u5CF0","id":101250802},{"placeName":"\u51B7\u6C34\u6C5F","id":101250803},{"placeName":"\u51B7\u6C34\u6EE9","id":101250804},{"placeName":"\u65B0\u5316","id":101250805},{"placeName":"\u6D9F\u6E90","id":101250806},{"placeName":"\u90B5\u9633","id":101250901},{"placeName":"\u9686\u56DE","id":101250902},{"placeName":"\u6D1E\u53E3","id":101250903},{"placeName":"\u65B0\u90B5","id":101250904},{"placeName":"\u90B5\u4E1C","id":101250905},{"placeName":"\u7EE5\u5B81","id":101250906},{"placeName":"\u65B0\u5B81","id":101250907},{"placeName":"\u6B66\u5188","id":101250908},{"placeName":"\u57CE\u6B65","id":101250909},{"placeName":"\u90B5\u9633\u53BF","id":101250910},{"placeName":"\u5CB3\u9633","id":101251001},{"placeName":"\u534E\u5BB9","id":101251002},{"placeName":"\u6E58\u9634","id":101251003},{"placeName":"\u6C68\u7F57","id":101251004},{"placeName":"\u5E73\u6C5F","id":101251005},{"placeName":"\u4E34\u6E58","id":101251006},{"placeName":"\u5F20\u5BB6\u754C","id":101251101},{"placeName":"\u6851\u690D","id":101251102},{"placeName":"\u6148\u5229","id":101251103},{"placeName":"\u6000\u5316","id":101251201},{"placeName":"\u9E64\u57CE\u533A","id":101251202},{"placeName":"\u6C85\u9675","id":101251203},{"placeName":"\u8FB0\u6EAA","id":101251204},{"placeName":"\u9756\u5DDE","id":101251205},{"placeName":"\u4F1A\u540C","id":101251206},{"placeName":"\u901A\u9053","id":101251207},{"placeName":"\u9EBB\u9633","id":101251208},{"placeName":"\u65B0\u6643","id":101251209},{"placeName":"\u82B7\u6C5F","id":101251210},{"placeName":"\u6E86\u6D66","id":101251211},{"placeName":"\u9ED4\u9633","id":101251301},{"placeName":"\u6D2A\u6C5F","id":101251302},{"placeName":"\u6C38\u5DDE","id":101251401},{"placeName":"\u7941\u9633","id":101251402},{"placeName":"\u4E1C\u5B89","id":101251403},{"placeName":"\u53CC\u724C","id":101251404},{"placeName":"\u9053\u53BF","id":101251405},{"placeName":"\u5B81\u8FDC","id":101251406},{"placeName":"\u6C5F\u6C38","id":101251407},{"placeName":"\u84DD\u5C71","id":101251408},{"placeName":"\u65B0\u7530","id":101251409},{"placeName":"\u6C5F\u534E","id":101251410},{"placeName":"\u5409\u9996","id":101251501},{"placeName":"\u4FDD\u9756","id":101251502},{"placeName":"\u6C38\u987A","id":101251503},{"placeName":"\u53E4\u4E08","id":101251504},{"placeName":"\u51E4\u51F0","id":101251505},{"placeName":"\u6CF8\u6EAA","id":101251506},{"placeName":"\u9F99\u5C71","id":101251507},{"placeName":"\u82B1\u57A3","id":101251508},{"placeName":"\u8D35\u9633","id":101260101},{"placeName":"\u767D\u4E91","id":101260102},{"placeName":"\u82B1\u6EAA","id":101260103},{"placeName":"\u4E4C\u5F53","id":101260104},{"placeName":"\u606F\u70FD","id":101260105},{"placeName":"\u5F00\u9633","id":101260106},{"placeName":"\u4FEE\u6587","id":101260107},{"placeName":"\u6E05\u9547","id":101260108},{"placeName":"\u9075\u4E49","id":101260201},{"placeName":"\u9075\u4E49\u53BF","id":101260202},{"placeName":"\u4EC1\u6000","id":101260203},{"placeName":"\u7EE5\u9633","id":101260204},{"placeName":"\u6E44\u6F6D","id":101260205},{"placeName":"\u51E4\u5188","id":101260206},{"placeName":"\u6850\u6893","id":101260207},{"placeName":"\u8D64\u6C34","id":101260208},{"placeName":"\u4E60\u6C34","id":101260209},{"placeName":"\u9053\u771F","id":101260210},{"placeName":"\u6B63\u5B89","id":101260211},{"placeName":"\u52A1\u5DDD","id":101260212},{"placeName":"\u4F59\u5E86","id":101260213},{"placeName":"\u6C47\u5DDD","id":101260214},{"placeName":"\u5B89\u987A","id":101260301},{"placeName":"\u666E\u5B9A","id":101260302},{"placeName":"\u9547\u5B81","id":101260303},{"placeName":"\u5E73\u575D","id":101260304},{"placeName":"\u7D2B\u4E91","id":101260305},{"placeName":"\u5173\u5CAD","id":101260306},{"placeName":"\u90FD\u5300","id":101260401},{"placeName":"\u8D35\u5B9A","id":101260402},{"placeName":"\u74EE\u5B89","id":101260403},{"placeName":"\u957F\u987A","id":101260404},{"placeName":"\u798F\u6CC9","id":101260405},{"placeName":"\u60E0\u6C34","id":101260406},{"placeName":"\u9F99\u91CC","id":101260407},{"placeName":"\u7F57\u7538","id":101260408},{"placeName":"\u5E73\u5858","id":101260409},{"placeName":"\u72EC\u5C71","id":101260410},{"placeName":"\u4E09\u90FD","id":101260411},{"placeName":"\u8354\u6CE2","id":101260412},{"placeName":"\u51EF\u91CC","id":101260501},{"placeName":"\u5C91\u5DE9","id":101260502},{"placeName":"\u65BD\u79C9","id":101260503},{"placeName":"\u9547\u8FDC","id":101260504},{"placeName":"\u9EC4\u5E73","id":101260505},{"placeName":"\u9EC4\u5E73\u65E7\u6D32","id":101260506},{"placeName":"\u9EBB\u6C5F","id":101260507},{"placeName":"\u4E39\u5BE8","id":101260508},{"placeName":"\u4E09\u7A57","id":101260509},{"placeName":"\u53F0\u6C5F","id":101260510},{"placeName":"\u5251\u6CB3","id":101260511},{"placeName":"\u96F7\u5C71","id":101260512},{"placeName":"\u9ECE\u5E73","id":101260513},{"placeName":"\u5929\u67F1","id":101260514},{"placeName":"\u9526\u5C4F","id":101260515},{"placeName":"\u6995\u6C5F","id":101260516},{"placeName":"\u4ECE\u6C5F","id":101260517},{"placeName":"\u7089\u5C71","id":101260518},{"placeName":"\u94DC\u4EC1","id":101260601},{"placeName":"\u6C5F\u53E3","id":101260602},{"placeName":"\u7389\u5C4F","id":101260603},{"placeName":"\u4E07\u5C71","id":101260604},{"placeName":"\u601D\u5357","id":101260605},{"placeName":"\u5858\u5934","id":101260606},{"placeName":"\u5370\u6C5F","id":101260607},{"placeName":"\u77F3\u9621","id":101260608},{"placeName":"\u6CBF\u6CB3","id":101260609},{"placeName":"\u5FB7\u6C5F","id":101260610},{"placeName":"\u677E\u6843","id":101260611},{"placeName":"\u6BD5\u8282","id":101260701},{"placeName":"\u8D6B\u7AE0","id":101260702},{"placeName":"\u91D1\u6C99","id":101260703},{"placeName":"\u5A01\u5B81","id":101260704},{"placeName":"\u5927\u65B9","id":101260705},{"placeName":"\u7EB3\u96CD","id":101260706},{"placeName":"\u7EC7\u91D1","id":101260707},{"placeName":"\u516D\u76D8\u6C34","id":101260801},{"placeName":"\u516D\u679D","id":101260802},{"placeName":"\u6C34\u57CE","id":101260803},{"placeName":"\u76D8\u53BF","id":101260804},{"placeName":"\u9ED4\u897F","id":101260901},{"placeName":"\u6674\u9686","id":101260902},{"placeName":"\u5174\u4EC1","id":101260903},{"placeName":"\u8D1E\u4E30","id":101260904},{"placeName":"\u671B\u8C1F","id":101260905},{"placeName":"\u5174\u4E49","id":101260906},{"placeName":"\u5B89\u9F99","id":101260907},{"placeName":"\u518C\u4EA8","id":101260908},{"placeName":"\u666E\u5B89","id":101260909},{"placeName":"\u6210\u90FD","id":101270101},{"placeName":"\u9F99\u6CC9\u9A7F","id":101270102},{"placeName":"\u65B0\u90FD","id":101270103},{"placeName":"\u6E29\u6C5F","id":101270104},{"placeName":"\u91D1\u5802","id":101270105},{"placeName":"\u53CC\u6D41","id":101270106},{"placeName":"\u90EB\u53BF","id":101270107},{"placeName":"\u5927\u9091","id":101270108},{"placeName":"\u84B2\u6C5F","id":101270109},{"placeName":"\u65B0\u6D25","id":101270110},{"placeName":"\u90FD\u6C5F\u5830","id":101270111},{"placeName":"\u5F6D\u5DDE","id":101270112},{"placeName":"\u909B\u5D03","id":101270113},{"placeName":"\u5D07\u5DDE","id":101270114},{"placeName":"\u5D07\u5E86","id":101270115},{"placeName":"\u5F6D\u53BF","id":101270116},{"placeName":"\u6500\u679D\u82B1","id":101270201},{"placeName":"\u4EC1\u548C","id":101270202},{"placeName":"\u7C73\u6613","id":101270203},{"placeName":"\u76D0\u8FB9","id":101270204},{"placeName":"\u81EA\u8D21","id":101270301},{"placeName":"\u5BCC\u987A","id":101270302},{"placeName":"\u8363\u53BF","id":101270303},{"placeName":"\u7EF5\u9633","id":101270401},{"placeName":"\u4E09\u53F0","id":101270402},{"placeName":"\u76D0\u4EAD","id":101270403},{"placeName":"\u5B89\u53BF","id":101270404},{"placeName":"\u6893\u6F7C","id":101270405},{"placeName":"\u5317\u5DDD","id":101270406},{"placeName":"\u5E73\u6B66","id":101270407},{"placeName":"\u6C5F\u6CB9","id":101270408},{"placeName":"\u5357\u5145","id":101270501},{"placeName":"\u5357\u90E8","id":101270502},{"placeName":"\u8425\u5C71","id":101270503},{"placeName":"\u84EC\u5B89","id":101270504},{"placeName":"\u4EEA\u9647","id":101270505},{"placeName":"\u897F\u5145","id":101270506},{"placeName":"\u9606\u4E2D","id":101270507},{"placeName":"\u8FBE\u5DDE","id":101270601},{"placeName":"\u5BA3\u6C49","id":101270602},{"placeName":"\u5F00\u6C5F","id":101270603},{"placeName":"\u5927\u7AF9","id":101270604},{"placeName":"\u6E20\u53BF","id":101270605},{"placeName":"\u4E07\u6E90","id":101270606},{"placeName":"\u8FBE\u5DDD","id":101270607},{"placeName":"\u9042\u5B81","id":101270701},{"placeName":"\u84EC\u6EAA","id":101270702},{"placeName":"\u5C04\u6D2A","id":101270703},{"placeName":"\u5E7F\u5B89","id":101270801},{"placeName":"\u5CB3\u6C60","id":101270802},{"placeName":"\u6B66\u80DC","id":101270803},{"placeName":"\u90BB\u6C34","id":101270804},{"placeName":"\u534E\u84E5\u5C71","id":101270805},{"placeName":"\u5DF4\u4E2D","id":101270901},{"placeName":"\u901A\u6C5F","id":101270902},{"placeName":"\u5357\u6C5F","id":101270903},{"placeName":"\u5E73\u660C","id":101270904},{"placeName":"\u6CF8\u5DDE","id":101271001},{"placeName":"\u6CF8\u53BF","id":101271003},{"placeName":"\u5408\u6C5F","id":101271004},{"placeName":"\u53D9\u6C38","id":101271005},{"placeName":"\u53E4\u853A","id":101271006},{"placeName":"\u7EB3\u6EAA","id":101271007},{"placeName":"\u5B9C\u5BBE","id":101271101},{"placeName":"\u5B9C\u5BBE\u519C\u8BD5\u7AD9","id":101271102},{"placeName":"\u5B9C\u5BBE\u53BF","id":101271103},{"placeName":"\u5357\u6EAA","id":101271104},{"placeName":"\u6C5F\u5B89","id":101271105},{"placeName":"\u957F\u5B81","id":101271106},{"placeName":"\u9AD8\u53BF","id":101271107},{"placeName":"\u73D9\u53BF","id":101271108},{"placeName":"\u7B60\u8FDE","id":101271109},{"placeName":"\u5174\u6587","id":101271110},{"placeName":"\u5C4F\u5C71","id":101271111},{"placeName":"\u5185\u6C5F","id":101271201},{"placeName":"\u4E1C\u5174","id":101271202},{"placeName":"\u5A01\u8FDC","id":101271203},{"placeName":"\u8D44\u4E2D","id":101271204},{"placeName":"\u9686\u660C","id":101271205},{"placeName":"\u8D44\u9633","id":101271301},{"placeName":"\u5B89\u5CB3","id":101271302},{"placeName":"\u4E50\u81F3","id":101271303},{"placeName":"\u7B80\u9633","id":101271304},{"placeName":"\u4E50\u5C71","id":101271401},{"placeName":"\u728D\u4E3A","id":101271402},{"placeName":"\u4E95\u7814","id":101271403},{"placeName":"\u5939\u6C5F","id":101271404},{"placeName":"\u6C90\u5DDD","id":101271405},{"placeName":"\u5CE8\u8FB9","id":101271406},{"placeName":"\u9A6C\u8FB9","id":101271407},{"placeName":"\u5CE8\u7709","id":101271408},{"placeName":"\u5CE8\u7709\u5C71","id":101271409},{"placeName":"\u7709\u5C71","id":101271501},{"placeName":"\u4EC1\u5BFF","id":101271502},{"placeName":"\u5F6D\u5C71","id":101271503},{"placeName":"\u6D2A\u96C5","id":101271504},{"placeName":"\u4E39\u68F1","id":101271505},{"placeName":"\u9752\u795E","id":101271506},{"placeName":"\u51C9\u5C71","id":101271601},{"placeName":"\u6728\u91CC","id":101271603},{"placeName":"\u76D0\u6E90","id":101271604},{"placeName":"\u5FB7\u660C","id":101271605},{"placeName":"\u4F1A\u7406","id":101271606},{"placeName":"\u4F1A\u4E1C","id":101271607},{"placeName":"\u5B81\u5357","id":101271608},{"placeName":"\u666E\u683C","id":101271609},{"placeName":"\u897F\u660C","id":101271610},{"placeName":"\u91D1\u9633","id":101271611},{"placeName":"\u662D\u89C9","id":101271612},{"placeName":"\u559C\u5FB7","id":101271613},{"placeName":"\u5195\u5B81","id":101271614},{"placeName":"\u8D8A\u897F","id":101271615},{"placeName":"\u7518\u6D1B","id":101271616},{"placeName":"\u96F7\u6CE2","id":101271617},{"placeName":"\u7F8E\u59D1","id":101271618},{"placeName":"\u5E03\u62D6","id":101271619},{"placeName":"\u96C5\u5B89","id":101271701},{"placeName":"\u540D\u5C71","id":101271702},{"placeName":"\u8363\u7ECF","id":101271703},{"placeName":"\u6C49\u6E90","id":101271704},{"placeName":"\u77F3\u68C9","id":101271705},{"placeName":"\u5929\u5168","id":101271706},{"placeName":"\u82A6\u5C71","id":101271707},{"placeName":"\u5B9D\u5174","id":101271708},{"placeName":"\u7518\u5B5C","id":101271801},{"placeName":"\u5EB7\u5B9A","id":101271802},{"placeName":"\u6CF8\u5B9A","id":101271803},{"placeName":"\u4E39\u5DF4","id":101271804},{"placeName":"\u4E5D\u9F99","id":101271805},{"placeName":"\u96C5\u6C5F","id":101271806},{"placeName":"\u9053\u5B5A","id":101271807},{"placeName":"\u7089\u970D","id":101271808},{"placeName":"\u65B0\u9F99","id":101271809},{"placeName":"\u5FB7\u683C","id":101271810},{"placeName":"\u767D\u7389","id":101271811},{"placeName":"\u77F3\u6E20","id":101271812},{"placeName":"\u8272\u8FBE","id":101271813},{"placeName":"\u7406\u5858","id":101271814},{"placeName":"\u5DF4\u5858","id":101271815},{"placeName":"\u4E61\u57CE","id":101271816},{"placeName":"\u7A3B\u57CE","id":101271817},{"placeName":"\u5F97\u8363","id":101271818},{"placeName":"\u963F\u575D","id":101271901},{"placeName":"\u6C76\u5DDD","id":101271902},{"placeName":"\u7406\u53BF","id":101271903},{"placeName":"\u8302\u53BF","id":101271904},{"placeName":"\u677E\u6F58","id":101271905},{"placeName":"\u4E5D\u5BE8\u6C9F","id":101271906},{"placeName":"\u91D1\u5DDD","id":101271907},{"placeName":"\u5C0F\u91D1","id":101271908},{"placeName":"\u9ED1\u6C34","id":101271909},{"placeName":"\u9A6C\u5C14\u5EB7","id":101271910},{"placeName":"\u58E4\u5858","id":101271911},{"placeName":"\u82E5\u5C14\u76D6","id":101271912},{"placeName":"\u7EA2\u539F","id":101271913},{"placeName":"\u5357\u576A","id":101271914},{"placeName":"\u5FB7\u9633","id":101272001},{"placeName":"\u4E2D\u6C5F","id":101272002},{"placeName":"\u5E7F\u6C49","id":101272003},{"placeName":"\u4EC0\u90A1","id":101272004},{"placeName":"\u7EF5\u7AF9","id":101272005},{"placeName":"\u7F57\u6C5F","id":101272006},{"placeName":"\u5E7F\u5143","id":101272101},{"placeName":"\u65FA\u82CD","id":101272102},{"placeName":"\u9752\u5DDD","id":101272103},{"placeName":"\u5251\u9601","id":101272104},{"placeName":"\u82CD\u6EAA","id":101272105},{"placeName":"\u5E7F\u5DDE","id":101280101},{"placeName":"\u756A\u79BA","id":101280102},{"placeName":"\u4ECE\u5316","id":101280103},{"placeName":"\u589E\u57CE","id":101280104},{"placeName":"\u82B1\u90FD","id":101280105},{"placeName":"\u5929\u6CB3","id":101280106},{"placeName":"\u97F6\u5173","id":101280201},{"placeName":"\u4E73\u6E90","id":101280202},{"placeName":"\u59CB\u5174","id":101280203},{"placeName":"\u7FC1\u6E90","id":101280204},{"placeName":"\u4E50\u660C","id":101280205},{"placeName":"\u4EC1\u5316","id":101280206},{"placeName":"\u5357\u96C4","id":101280207},{"placeName":"\u65B0\u4E30","id":101280208},{"placeName":"\u66F2\u6C5F","id":101280209},{"placeName":"\u60E0\u5DDE","id":101280301},{"placeName":"\u535A\u7F57","id":101280302},{"placeName":"\u60E0\u9633","id":101280303},{"placeName":"\u60E0\u4E1C","id":101280304},{"placeName":"\u9F99\u95E8","id":101280305},{"placeName":"\u6885\u5DDE","id":101280401},{"placeName":"\u5174\u5B81","id":101280402},{"placeName":"\u8549\u5CAD","id":101280403},{"placeName":"\u5927\u57D4","id":101280404},{"placeName":"\u4E30\u987A","id":101280406},{"placeName":"\u5E73\u8FDC","id":101280407},{"placeName":"\u4E94\u534E","id":101280408},{"placeName":"\u6885\u53BF","id":101280409},{"placeName":"\u6C55\u5934","id":101280501},{"placeName":"\u6F6E\u9633","id":101280502},{"placeName":"\u6F84\u6D77","id":101280503},{"placeName":"\u5357\u6FB3","id":101280504},{"placeName":"\u4E91\u6FB3","id":101280505},{"placeName":"\u5357\u6F8E\u5C9B","id":101280506},{"placeName":"\u6DF1\u5733","id":101280601},{"placeName":"\u73E0\u6D77","id":101280701},{"placeName":"\u6597\u95E8","id":101280702},{"placeName":"\u9EC4\u8305\u6D32","id":101280703},{"placeName":"\u4F5B\u5C71","id":101280800},{"placeName":"\u987A\u5FB7","id":101280801},{"placeName":"\u4E09\u6C34","id":101280802},{"placeName":"\u5357\u6D77","id":101280803},{"placeName":"\u8087\u5E86","id":101280901},{"placeName":"\u5E7F\u5B81","id":101280902},{"placeName":"\u56DB\u4F1A","id":101280903},{"placeName":"\u5FB7\u5E86","id":101280905},{"placeName":"\u6000\u96C6","id":101280906},{"placeName":"\u5C01\u5F00","id":101280907},{"placeName":"\u9AD8\u8981","id":101280908},{"placeName":"\u6E5B\u6C5F","id":101281001},{"placeName":"\u5434\u5DDD","id":101281002},{"placeName":"\u96F7\u5DDE","id":101281003},{"placeName":"\u5F90\u95FB","id":101281004},{"placeName":"\u5EC9\u6C5F","id":101281005},{"placeName":"\u7847\u6D32","id":101281006},{"placeName":"\u9042\u6EAA","id":101281007},{"placeName":"\u6C5F\u95E8","id":101281101},{"placeName":"\u5F00\u5E73","id":101281103},{"placeName":"\u65B0\u4F1A","id":101281104},{"placeName":"\u6069\u5E73","id":101281105},{"placeName":"\u53F0\u5C71","id":101281106},{"placeName":"\u4E0A\u5DDD\u5C9B","id":101281107},{"placeName":"\u9E64\u5C71","id":101281108},{"placeName":"\u6CB3\u6E90","id":101281201},{"placeName":"\u7D2B\u91D1","id":101281202},{"placeName":"\u8FDE\u5E73","id":101281203},{"placeName":"\u548C\u5E73","id":101281204},{"placeName":"\u9F99\u5DDD","id":101281205},{"placeName":"\u6E05\u8FDC","id":101281301},{"placeName":"\u8FDE\u5357","id":101281302},{"placeName":"\u8FDE\u5DDE","id":101281303},{"placeName":"\u8FDE\u5C71","id":101281304},{"placeName":"\u9633\u5C71","id":101281305},{"placeName":"\u4F5B\u5188","id":101281306},{"placeName":"\u82F1\u5FB7","id":101281307},{"placeName":"\u4E91\u6D6E","id":101281401},{"placeName":"\u7F57\u5B9A","id":101281402},{"placeName":"\u65B0\u5174","id":101281403},{"placeName":"\u90C1\u5357","id":101281404},{"placeName":"\u6F6E\u5DDE","id":101281501},{"placeName":"\u9976\u5E73","id":101281502},{"placeName":"\u4E1C\u839E","id":101281601},{"placeName":"\u4E2D\u5C71","id":101281701},{"placeName":"\u9633\u6C5F","id":101281801},{"placeName":"\u9633\u6625","id":101281802},{"placeName":"\u63ED\u9633","id":101281901},{"placeName":"\u63ED\u897F","id":101281902},{"placeName":"\u666E\u5B81","id":101281903},{"placeName":"\u60E0\u6765","id":101281904},{"placeName":"\u8302\u540D","id":101282001},{"placeName":"\u9AD8\u5DDE","id":101282002},{"placeName":"\u5316\u5DDE","id":101282003},{"placeName":"\u7535\u767D","id":101282004},{"placeName":"\u4FE1\u5B9C","id":101282005},{"placeName":"\u6C55\u5C3E","id":101282101},{"placeName":"\u6D77\u4E30","id":101282102},{"placeName":"\u9646\u4E30","id":101282103},{"placeName":"\u906E\u6D6A","id":101282104},{"placeName":"\u4E1C\u6C99\u5C9B","id":101282105},{"placeName":"\u6606\u660E","id":101290101},{"placeName":"\u6606\u660E\u519C\u8BD5\u7AD9","id":101290102},{"placeName":"\u4E1C\u5DDD","id":101290103},{"placeName":"\u5BFB\u7538","id":101290104},{"placeName":"\u664B\u5B81","id":101290105},{"placeName":"\u5B9C\u826F","id":101290106},{"placeName":"\u77F3\u6797","id":101290107},{"placeName":"\u5448\u8D21","id":101290108},{"placeName":"\u5BCC\u6C11","id":101290109},{"placeName":"\u5D69\u660E","id":101290110},{"placeName":"\u7984\u529D","id":101290111},{"placeName":"\u5B89\u5B81","id":101290112},{"placeName":"\u592A\u534E\u5C71","id":101290113},{"placeName":"\u6CB3\u53E3","id":101290114},{"placeName":"\u5927\u7406","id":101290201},{"placeName":"\u4E91\u9F99","id":101290202},{"placeName":"\u6F3E\u9F3B","id":101290203},{"placeName":"\u6C38\u5E73","id":101290204},{"placeName":"\u5BBE\u5DDD","id":101290205},{"placeName":"\u5F25\u6E21","id":101290206},{"placeName":"\u7965\u4E91","id":101290207},{"placeName":"\u9B4F\u5C71","id":101290208},{"placeName":"\u5251\u5DDD","id":101290209},{"placeName":"\u6D31\u6E90","id":101290210},{"placeName":"\u9E64\u5E86","id":101290211},{"placeName":"\u5357\u6DA7","id":101290212},{"placeName":"\u7EA2\u6CB3","id":101290301},{"placeName":"\u77F3\u5C4F","id":101290302},{"placeName":"\u5EFA\u6C34","id":101290303},{"placeName":"\u5F25\u52D2","id":101290304},{"placeName":"\u5143\u9633","id":101290305},{"placeName":"\u7EFF\u6625","id":101290306},{"placeName":"\u5F00\u8FDC","id":101290307},{"placeName":"\u4E2A\u65E7","id":101290308},{"placeName":"\u8499\u81EA","id":101290309},{"placeName":"\u5C4F\u8FB9","id":101290310},{"placeName":"\u6CF8\u897F","id":101290311},{"placeName":"\u91D1\u5E73","id":101290312},{"placeName":"\u66F2\u9756","id":101290401},{"placeName":"\u6CBE\u76CA","id":101290402},{"placeName":"\u9646\u826F","id":101290403},{"placeName":"\u5BCC\u6E90","id":101290404},{"placeName":"\u9A6C\u9F99","id":101290405},{"placeName":"\u5E08\u5B97","id":101290406},{"placeName":"\u7F57\u5E73","id":101290407},{"placeName":"\u4F1A\u6CFD","id":101290408},{"placeName":"\u5BA3\u5A01","id":101290409},{"placeName":"\u4FDD\u5C71","id":101290501},{"placeName":"\u5BCC\u5B81","id":101290502},{"placeName":"\u9F99\u9675","id":101290503},{"placeName":"\u65BD\u7538","id":101290504},{"placeName":"\u660C\u5B81","id":101290505},{"placeName":"\u817E\u51B2","id":101290506},{"placeName":"\u6587\u5C71","id":101290601},{"placeName":"\u897F\u7574","id":101290602},{"placeName":"\u9A6C\u5173","id":101290603},{"placeName":"\u9EBB\u6817\u5761","id":101290604},{"placeName":"\u781A\u5C71","id":101290605},{"placeName":"\u90B1\u5317","id":101290606},{"placeName":"\u5E7F\u5357","id":101290607},{"placeName":"\u7389\u6EAA","id":101290701},{"placeName":"\u6F84\u6C5F","id":101290702},{"placeName":"\u6C5F\u5DDD","id":101290703},{"placeName":"\u901A\u6D77","id":101290704},{"placeName":"\u534E\u5B81","id":101290705},{"placeName":"\u65B0\u5E73","id":101290706},{"placeName":"\u6613\u95E8","id":101290707},{"placeName":"\u5CE8\u5C71","id":101290708},{"placeName":"\u5143\u6C5F","id":101290709},{"placeName":"\u695A\u96C4","id":101290801},{"placeName":"\u5927\u59DA","id":101290802},{"placeName":"\u5143\u8C0B","id":101290803},{"placeName":"\u59DA\u5B89","id":101290804},{"placeName":"\u725F\u5B9A","id":101290805},{"placeName":"\u5357\u534E","id":101290806},{"placeName":"\u6B66\u5B9A","id":101290807},{"placeName":"\u7984\u4E30","id":101290808},{"placeName":"\u53CC\u67CF","id":101290809},{"placeName":"\u6C38\u4EC1","id":101290810},{"placeName":"\u666E\u6D31","id":101290901},{"placeName":"\u666F\u8C37","id":101290902},{"placeName":"\u666F\u4E1C","id":101290903},{"placeName":"\u6F9C\u6CA7","id":101290904},{"placeName":"\u666E\u6D31","id":101290905},{"placeName":"\u58A8\u6C5F","id":101290906},{"placeName":"\u6C5F\u57CE","id":101290907},{"placeName":"\u5B5F\u8FDE","id":101290908},{"placeName":"\u897F\u76DF","id":101290909},{"placeName":"\u9547\u6E90","id":101290910},{"placeName":"\u9547\u6C85","id":101290911},{"placeName":"\u5B81\u6D31","id":101290912},{"placeName":"\u662D\u901A","id":101291001},{"placeName":"\u9C81\u7538","id":101291002},{"placeName":"\u5F5D\u826F","id":101291003},{"placeName":"\u9547\u96C4","id":101291004},{"placeName":"\u5A01\u4FE1","id":101291005},{"placeName":"\u5DE7\u5BB6","id":101291006},{"placeName":"\u7EE5\u6C5F","id":101291007},{"placeName":"\u6C38\u5584","id":101291008},{"placeName":"\u76D0\u6D25","id":101291009},{"placeName":"\u5927\u5173","id":101291010},{"placeName":"\u4E34\u6CA7","id":101291101},{"placeName":"\u6CA7\u6E90","id":101291102},{"placeName":"\u803F\u9A6C","id":101291103},{"placeName":"\u53CC\u6C5F","id":101291104},{"placeName":"\u51E4\u5E86","id":101291105},{"placeName":"\u6C38\u5FB7","id":101291106},{"placeName":"\u4E91\u53BF","id":101291107},{"placeName":"\u9547\u5EB7","id":101291108},{"placeName":"\u6012\u6C5F","id":101291201},{"placeName":"\u798F\u8D21","id":101291203},{"placeName":"\u5170\u576A","id":101291204},{"placeName":"\u6CF8\u6C34","id":101291205},{"placeName":"\u516D\u5E93","id":101291206},{"placeName":"\u8D21\u5C71","id":101291207},{"placeName":"\u9999\u683C\u91CC\u62C9","id":101291301},{"placeName":"\u5FB7\u94A6","id":101291302},{"placeName":"\u7EF4\u897F","id":101291303},{"placeName":"\u4E2D\u7538","id":101291304},{"placeName":"\u4E3D\u6C5F","id":101291401},{"placeName":"\u6C38\u80DC","id":101291402},{"placeName":"\u534E\u576A","id":101291403},{"placeName":"\u5B81\u8497","id":101291404},{"placeName":"\u5FB7\u5B8F","id":101291501},{"placeName":"\u6F5E\u6C5F\u575D","id":101291502},{"placeName":"\u9647\u5DDD","id":101291503},{"placeName":"\u76C8\u6C5F","id":101291504},{"placeName":"\u7579\u753A\u9547","id":101291505},{"placeName":"\u745E\u4E3D","id":101291506},{"placeName":"\u6881\u6CB3","id":101291507},{"placeName":"\u6F5E\u897F","id":101291508},{"placeName":"\u666F\u6D2A","id":101291601},{"placeName":"\u5927\u52D0\u9F99","id":101291602},{"placeName":"\u52D0\u6D77","id":101291603},{"placeName":"\u666F\u6D2A\u7535\u7AD9","id":101291604},{"placeName":"\u52D0\u814A","id":101291605},{"placeName":"\u5357\u5B81","id":101300101},{"placeName":"\u5357\u5B81\u57CE\u533A","id":101300102},{"placeName":"\u9095\u5B81","id":101300103},{"placeName":"\u6A2A\u53BF","id":101300104},{"placeName":"\u9686\u5B89","id":101300105},{"placeName":"\u9A6C\u5C71","id":101300106},{"placeName":"\u4E0A\u6797","id":101300107},{"placeName":"\u6B66\u9E23","id":101300108},{"placeName":"\u5BBE\u9633","id":101300109},{"placeName":"\u7855\u9F99","id":101300110},{"placeName":"\u5D07\u5DE6","id":101300201},{"placeName":"\u5929\u7B49","id":101300202},{"placeName":"\u9F99\u5DDE","id":101300203},{"placeName":"\u51ED\u7965","id":101300204},{"placeName":"\u5927\u65B0","id":101300205},{"placeName":"\u6276\u7EE5","id":101300206},{"placeName":"\u5B81\u660E","id":101300207},{"placeName":"\u6D77\u6E0A","id":101300208},{"placeName":"\u67F3\u5DDE","id":101300301},{"placeName":"\u67F3\u57CE","id":101300302},{"placeName":"\u6C99\u5858","id":101300303},{"placeName":"\u9E7F\u5BE8","id":101300304},{"placeName":"\u67F3\u6C5F","id":101300305},{"placeName":"\u878D\u5B89","id":101300306},{"placeName":"\u878D\u6C34","id":101300307},{"placeName":"\u4E09\u6C5F","id":101300308},{"placeName":"\u6765\u5BBE","id":101300401},{"placeName":"\u5FFB\u57CE","id":101300402},{"placeName":"\u91D1\u79C0","id":101300403},{"placeName":"\u8C61\u5DDE","id":101300404},{"placeName":"\u6B66\u5BA3","id":101300405},{"placeName":"\u6842\u6797","id":101300501},{"placeName":"\u6842\u6797\u519C\u8BD5\u7AD9","id":101300502},{"placeName":"\u9F99\u80DC","id":101300503},{"placeName":"\u6C38\u798F","id":101300504},{"placeName":"\u4E34\u6842","id":101300505},{"placeName":"\u5174\u5B89","id":101300506},{"placeName":"\u7075\u5DDD","id":101300507},{"placeName":"\u5168\u5DDE","id":101300508},{"placeName":"\u704C\u9633","id":101300509},{"placeName":"\u9633\u6714","id":101300510},{"placeName":"\u606D\u57CE","id":101300511},{"placeName":"\u5E73\u4E50","id":101300512},{"placeName":"\u8354\u6D66","id":101300513},{"placeName":"\u8D44\u6E90","id":101300514},{"placeName":"\u68A7\u5DDE","id":101300601},{"placeName":"\u85E4\u53BF","id":101300602},{"placeName":"\u592A\u5E73","id":101300603},{"placeName":"\u82CD\u68A7","id":101300604},{"placeName":"\u8499\u5C71","id":101300605},{"placeName":"\u5C91\u6EAA","id":101300606},{"placeName":"\u8D3A\u5DDE","id":101300701},{"placeName":"\u662D\u5E73","id":101300702},{"placeName":"\u5BCC\u5DDD","id":101300703},{"placeName":"\u949F\u5C71","id":101300704},{"placeName":"\u4FE1\u90FD","id":101300705},{"placeName":"\u8D35\u6E2F","id":101300801},{"placeName":"\u6842\u5E73","id":101300802},{"placeName":"\u5E73\u5357","id":101300803},{"placeName":"\u7389\u6797","id":101300901},{"placeName":"\u535A\u767D","id":101300902},{"placeName":"\u5317\u6D41","id":101300903},{"placeName":"\u5BB9\u53BF","id":101300904},{"placeName":"\u9646\u5DDD","id":101300905},{"placeName":"\u767E\u8272","id":101301001},{"placeName":"\u90A3\u5761","id":101301002},{"placeName":"\u7530\u9633","id":101301003},{"placeName":"\u5FB7\u4FDD","id":101301004},{"placeName":"\u9756\u897F","id":101301005},{"placeName":"\u7530\u4E1C","id":101301006},{"placeName":"\u5E73\u679C","id":101301007},{"placeName":"\u9686\u6797","id":101301008},{"placeName":"\u897F\u6797","id":101301009},{"placeName":"\u4E50\u4E1A","id":101301010},{"placeName":"\u51CC\u4E91","id":101301011},{"placeName":"\u7530\u6797","id":101301012},{"placeName":"\u94A6\u5DDE","id":101301101},{"placeName":"\u6D66\u5317","id":101301102},{"placeName":"\u7075\u5C71","id":101301103},{"placeName":"\u6CB3\u6C60","id":101301201},{"placeName":"\u5929\u5CE8","id":101301202},{"placeName":"\u4E1C\u5170","id":101301203},{"placeName":"\u5DF4\u9A6C","id":101301204},{"placeName":"\u73AF\u6C5F","id":101301205},{"placeName":"\u7F57\u57CE","id":101301206},{"placeName":"\u5B9C\u5DDE","id":101301207},{"placeName":"\u51E4\u5C71","id":101301208},{"placeName":"\u5357\u4E39","id":101301209},{"placeName":"\u90FD\u5B89","id":101301210},{"placeName":"\u5317\u6D77","id":101301301},{"placeName":"\u5408\u6D66","id":101301302},{"placeName":"\u6DA0\u6D32\u5C9B","id":101301303},{"placeName":"\u9632\u57CE\u6E2F","id":101301401},{"placeName":"\u4E0A\u601D","id":101301402},{"placeName":"\u4E1C\u5174","id":101301403},{"placeName":"\u677F\u680F","id":101301404},{"placeName":"\u9632\u57CE","id":101301405},{"placeName":"\u6D77\u53E3","id":101310101},{"placeName":"\u743C\u5C71","id":101310102},{"placeName":"\u4E09\u4E9A","id":101310201},{"placeName":"\u4E1C\u65B9","id":101310202},{"placeName":"\u4E34\u9AD8","id":101310203},{"placeName":"\u6F84\u8FC8","id":101310204},{"placeName":"\u510B\u5DDE","id":101310205},{"placeName":"\u660C\u6C5F","id":101310206},{"placeName":"\u767D\u6C99","id":101310207},{"placeName":"\u743C\u4E2D","id":101310208},{"placeName":"\u5B9A\u5B89","id":101310209},{"placeName":"\u5C6F\u660C","id":101310210},{"placeName":"\u743C\u6D77","id":101310211},{"placeName":"\u6587\u660C","id":101310212},{"placeName":"\u6E05\u5170","id":101310213},{"placeName":"\u4FDD\u4EAD","id":101310214},{"placeName":"\u4E07\u5B81","id":101310215},{"placeName":"\u9675\u6C34","id":101310216},{"placeName":"\u897F\u6C99","id":101310217},{"placeName":"\u73CA\u745A\u5C9B","id":101310218},{"placeName":"\u6C38\u7F72\u7901","id":101310219},{"placeName":"\u5357\u6C99\u5C9B","id":101310220},{"placeName":"\u4E50\u4E1C","id":101310221},{"placeName":"\u4E94\u6307\u5C71","id":101310222},{"placeName":"\u901A\u4EC0","id":101310223},{"placeName":"\u9999\u6E2F","id":101320101},{"placeName":"\u4E5D\u9F99","id":101320102},{"placeName":"\u65B0\u754C","id":101320103},{"placeName":"\u4E2D\u73AF","id":101320104},{"placeName":"\u94DC\u9523\u6E7E","id":101320105},{"placeName":"\u6FB3\u95E8","id":101330101},{"placeName":"\u53F0\u5317\u53BF","id":101340101},{"placeName":"\u53F0\u5317\u5E02","id":101340102},{"placeName":"\u9AD8\u96C4","id":101340201},{"placeName":"\u4E1C\u6E2F","id":101340202},{"placeName":"\u5927\u6B66","id":101340203},{"placeName":"\u6052\u6625","id":101340204},{"placeName":"\u5170\u5C7F","id":101340205},{"placeName":"\u53F0\u5357","id":101340301},{"placeName":"\u53F0\u4E2D","id":101340401},{"placeName":"\u6843\u56ED","id":101340501},{"placeName":"\u65B0\u7AF9\u53BF","id":101340601},{"placeName":"\u65B0\u7AF9\u5E02","id":101340602},{"placeName":"\u516C\u9986","id":101340603},{"placeName":"\u5B9C\u5170","id":101340701},{"placeName":"\u9A6C\u516C","id":101340801},{"placeName":"\u4E1C\u5409\u5C7F","id":101340802},{"placeName":"\u5609\u4E49","id":101340901},{"placeName":"\u963F\u91CC\u5C71","id":101340902},{"placeName":"\u7389\u5C71","id":101340903},{"placeName":"\u65B0\u6E2F","id":101340904}]